hrid,name,DSP ID,Administrative ID,kind,address,coords,state,zone,x,y,cc,cc_id
angmokio-angmokioav4-blk157,Ang Mo Kio/Ang Mo Kio Av 4/Blk 157,560157-02,SG-560157-002,Parking,"{'city': 'Singapore', 'street': '157 Ang Mo Kio Avenue 4', 'country': 'SG', 'zipcode': '560157'}",SRID=4326;POINT (103.839079 1.3751449),Open,23,103.839079,1.3751449,0.0,2
angmokio-angmokioave10-blk410,Ang Mo Kio/Ang Mo Kio Ave 10/Blk 410,560410-01,SG-560410-001,Parking,"{'city': 'Singapore', 'street': '410 Ang Mo Kio Avenue 10', 'country': 'SG', 'zipcode': '560410'}",SRID=4326;POINT (103.8546083 1.3632318),Open,23,103.8546083,1.3632318,1.0,0
angmokio-angmokioavenue10-blk449,Ang Mo Kio/Ang Mo Kio Avenue 10/Blk 449,560449-01,SG-560449-001,Parking,"{'city': 'Singapore', 'street': '449 Ang Mo Kio Avenue 10', 'country': 'SG', 'zipcode': '560449', 'building': '', 'neighborhood': ''}",SRID=4326;POINT (103.8558 1.36805),Open,23,103.8558,1.36805,1.0,1
angmokio-angmokioavenue10-blk544,Ang Mo Kio/Ang Mo Kio Avenue 10/Blk 544,560540-01,SG-560540-001,Parking,"{'city': 'Singapore', 'street': '540/546 Ang Mo Kio Avenue 10', 'country': 'SG', 'zipcode': '560540', 'building': '', 'neighborhood': ''}",SRID=4326;POINT (103.856048 1.373765),Open,23,103.856048,1.373765,0.0,8
angmokio-angmokioavenue10-blk559,Ang Mo Kio/Ang Mo Kio Avenue 10/Blk 559,560559-01,SG-560559-001,Parking,"{'city': 'Singapore', 'street': '559 Ang Mo Kio Avenue 10', 'country': 'SG', 'zipcode': '560559', 'building': '', 'neighborhood': ''}",SRID=4326;POINT (103.857277 1.371022),Open,23,103.857277,1.371022,0.0,1
angmokio-angmokioavenue4-blk110,Ang Mo Kio/Ang Mo Kio Avenue 4/Blk 110,560110-01,SG-560110-001,Parking,"{'city': 'Singapore', 'street': '110 Ang Mo Kio Avenue 4', 'country': 'SG', 'zipcode': '560110', 'building': '', 'neighborhood': ''}",SRID=4326;POINT (103.837923 1.370557),Open,23,103.837923,1.370557,0.0,2
angmokio-angmokioavenue4-blk114,Ang Mo Kio/Ang Mo Kio Avenue 4/Blk 114,560114-01,SG-560114-001,Parking,"{'city': 'Singapore', 'street': '114 Ang Mo Kio Avenue 4', 'country': 'SG', 'zipcode': '560114', 'building': '', 'neighborhood': ''}",SRID=4326;POINT (103.836312 1.372293),Open,23,103.836312,1.372293,1.0,2
angmokio-angmokioavenue5-blk605,Ang Mo Kio/Ang Mo Kio Avenue 5/Blk 605,560605-01,SG-560605-001,Parking,"{'city': 'Singapore', 'street': '605 Ang Mo Kio Avenue 5', 'country': 'SG', 'zipcode': '560605', 'building': '', 'neighborhood': ''}",SRID=4326;POINT (103.836079 1.37925),Open,23,103.836079,1.37925,1.0,3
angmokio-angmokioavenue6-blk123,Ang Mo Kio/Ang Mo Kio Avenue 6/Blk 123,560123-01,SG-560123-001,Parking,"{'city': 'Singapore', 'street': '123 Ang Mo Kio Avenue 6', 'country': 'SG', 'zipcode': '560123', 'building': '', 'neighborhood': ''}",SRID=4326;POINT (103.844376 1.370392),Open,23,103.844376,1.370392,1.0,4
angmokio-angmokioavenue6-blk647,Ang Mo Kio/Ang Mo Kio Avenue 6/Blk 647,560647-01,SG-560647-001,Parking,"{'city': 'Singapore', 'street': '647 Ang Mo Kio Avenue 6', 'country': 'SG', 'zipcode': '560647', 'building': '', 'neighborhood': ''}",SRID=4326;POINT (103.843833 1.378898),Open,23,103.843833,1.378898,1.0,5
angmokio-angmokioavenue8-blk510,Ang Mo Kio/Ang Mo Kio Avenue 8/Blk 510,560510-01,SG-560510-001,Parking,"{'city': 'Singapore', 'street': '510 Ang Mo Kio Avenue 8', 'country': 'SG', 'zipcode': '560510', 'building': '', 'neighborhood': ''}",SRID=4326;POINT (103.849485 1.373288),Open,23,103.849485,1.373288,0.0,8
angmokio-angmokioavenue9-blk627,Ang Mo Kio/Ang Mo Kio Avenue 9/Blk 627,560627-01,SG-560627-001,Parking,"{'city': 'Singapore', 'street': '627 Ang Mo Kio Avenue 9', 'country': 'SG', 'zipcode': '560627', 'building': '', 'neighborhood': ''}",SRID=4326;POINT (103.841393 1.382052),Open,23,103.841393,1.382052,0.0,5
angmokio-angmokiost22-blk226eh,Ang Mo Kio/Ang Mo Kio St 22/Blk 226E-H,565226-01,SG-565226-001,Parking,"{'city': 'Singapore', 'street': '226 Ang Mo Kio Street 22', 'country': 'SG', 'zipcode': '565226', 'building': '', 'neighborhood': ''}",SRID=4326;POINT (103.840661 1.366843),Open,23,103.840661,1.366843,1.0,6
angmokio-angmokiostreet31-blk316b-deck1b,Ang Mo Kio/Ang Mo Kio Street 31/Blk 316B/Deck 1B,563316-01,SG-563316-001,Parking,"{'city': 'Singapore', 'street': '316B Ang Mo Kio Street 31', 'country': 'SG', 'zipcode': '563316', 'building': '', 'neighborhood': ''}",SRID=4326;POINT (103.847667 1.364667),Open,23,103.847667,1.364667,1.0,7
angmokio-angmokiostreet51-blk590-deck1a,Ang Mo Kio/Ang Mo Kio Street 51/Blk 590/Deck 1A,560590-01,SG-560590-001,Parking,"{'city': 'Singapore', 'street': '590 Ang Mo Kio Street 51', 'country': 'SG', 'zipcode': '560590', 'building': '', 'neighborhood': ''}",SRID=4326;POINT (103.853064 1.371634),Open,23,103.853064,1.371634,1.0,8
angmokio-angmokiostreet52-blk596-deck1a,Ang Mo Kio/Ang Mo Kio Street 52/Blk 596/Deck 1A,560596-01,SG-560596-001,Parking,"{'city': 'Singapore', 'street': '596 Ang Mo Kio Street 52', 'country': 'SG', 'zipcode': '560596', 'building': '', 'neighborhood': ''}",SRID=4326;POINT (103.851404 1.372412),Open,23,103.851404,1.372412,0.0,8
bedok-bedokcentral-blk220-deck1a,Bedok/Bedok Central/Blk 220/Deck 1A,460220-01,SG-460220-001,Parking,"{'city': 'Singapore', 'street': '220 Bedok Central', 'country': 'SG', 'zipcode': '460220', 'building': '', 'neighborhood': ''}",SRID=4326;POINT (103.935059 1.325543),Open,19,103.935059,1.325543,0.0,10
bedok-bedoknorthavenue2-blk515,Bedok/Bedok North Avenue 2/Blk 515,460554-01,SG-460554-001,Parking,"{'city': 'Singapore', 'street': '512-518 Bedok North Avenue 2', 'country': 'SG', 'zipcode': '460554', 'building': '', 'neighborhood': ''}",SRID=4326;POINT (103.929747 1.332295),Open,19,103.929747,1.332295,1.0,9
bedok-bedoknorthrd-blk184-deck1a,Bedok/Bedok North Rd/Blk 184/Deck 1A,460184-01,SG-460184-001,Parking,"{'city': 'Singapore', 'street': '184 Bedok North Road, Vista 8', 'country': 'SG', 'zipcode': '460184'}",SRID=4326;POINT (103.94176 1.326199),Open,19,103.94176,1.326199,0.0,10
bedok-bedoknorthroad-blk425,Bedok/Bedok North Road/Blk 425,460425-01,SG-460425-001,Parking,"{'city': 'Singapore', 'street': '425 Bedok North Road', 'country': 'SG', 'zipcode': '460425', 'building': '', 'neighborhood': ''}",SRID=4326;POINT (103.92944 1.329159),Open,19,103.92944,1.329159,0.0,9
bedok-bedoknorthstreet2-blk129,Bedok/Bedok North Street 2/Blk 129,460124-01,SG-460124-001,Parking,"{'city': 'Singapore', 'street': '124 Bedok North Street 2', 'country': 'SG', 'zipcode': '460124', 'building': '', 'neighborhood': ''}",SRID=4326;POINT (103.93846 1.327761),Open,19,103.93846,1.327761,1.0,10
bedok-bedoknorthstreet3-blk534,Bedok/Bedok North Street 3/Blk 534,460534-01,SG-460534-001,Parking,"{'city': 'Singapore', 'street': '534 Bedok North Street 3', 'country': 'SG', 'zipcode': '460534', 'building': '', 'neighborhood': ''}",SRID=4326;POINT (103.92394 1.333285),Open,19,103.92394,1.333285,0.0,11
bedok-bedokreservoircrescent-blk748-deckb1,Bedok/Bedok Reservoir Crescent/Blk 748/Deck B1,470748-01,SG-470748-001,Parking,"{'city': 'Singapore', 'street': '748 Bedok Reservoir Crescent', 'country': 'SG', 'zipcode': '470748', 'building': '', 'neighborhood': ''}",SRID=4326;POINT (103.921843 1.336105),Open,19,103.921843,1.336105,1.0,11
bedok-bedokreservoirroad-blk145a-deck1a,Bedok/Bedok Reservoir Road/Blk 145A/Deck 1A,411145-01,SG-411145-001,Parking,"{'city': 'Singapore', 'street': '145A Bedok Reservoir Road', 'country': 'SG', 'zipcode': '411145', 'building': '', 'neighborhood': ''}",SRID=4326;POINT (103.91138 1.334281),Open,19,103.91138,1.334281,1.0,12
bedok-bedokreservoirroad-blk609,Bedok/Bedok Reservoir Road/Blk 609,470609-01,SG-470609-001,Parking,"{'city': 'Singapore', 'street': '609 Bedok Reservoir Road', 'country': 'SG', 'zipcode': '470609', 'building': '', 'neighborhood': ''}",SRID=4326;POINT (103.912391 1.33135),Open,19,103.912391,1.33135,0.0,12
bedok-bedokreservoirroad-blk613c-deck2a,Bedok/Bedok Reservoir Road/Blk 613C/Deck 2A,473613-01,SG-473613-001,Parking,"{'city': 'Singapore', 'street': '613C Bedok Reservoir Road', 'country': 'SG', 'zipcode': '473613', 'building': '', 'neighborhood': ''}",SRID=4326;POINT (103.917575 1.333199),Open,19,103.917575,1.333199,1.0,13
bedok-bedokreservoirroad-blk724,Bedok/Bedok Reservoir Road/Blk 724,470724-01,SG-470724-001,Parking,"{'city': 'Singapore', 'street': '724 Bedok Reservoir Road', 'country': 'SG', 'zipcode': '470724', 'building': '', 'neighborhood': ''}",SRID=4326;POINT (103.928574 1.336923),Open,19,103.928574,1.336923,1.0,14
bedok-bedokreservoirroad-blk739a-deck2,Bedok/Bedok Reservoir Road/Blk 739A/Deck 2,471739-01,SG-471739-001,Parking,"{'city': 'Singapore', 'street': '739A Bedok Reservoir Road', 'country': 'SG', 'zipcode': '471739', 'building': '', 'neighborhood': ''}",SRID=4326;POINT (103.923594 1.338203),Open,19,103.923594,1.338203,0.0,11
bedok-bedoksouthavenue3-behindblk69,Bedok/Bedok South Avenue 3/Behind Blk 69,460069-01,SG-460069-001,Parking,"{'city': 'Singapore', 'street': '69 Bedok South Avenue 3', 'country': 'SG', 'zipcode': '460069', 'building': '', 'neighborhood': ''}",SRID=4326;POINT (103.943098 1.319455),Open,19,103.943098,1.319455,1.0,15
bedok-chaicheeavenue-blk37,Bedok/Chai Chee Avenue/Blk 37,461037-01,SG-461037-001,Parking,"{'city': 'Singapore', 'street': '37 Chai Chee Avenue', 'country': 'SG', 'zipcode': '461037', 'building': '', 'neighborhood': ''}",SRID=4326;POINT (103.925817 1.325325),Open,19,103.925817,1.325325,0.0,16
bedok-chaicheeroad-blk807-deck1b,Bedok/Chai Chee Road/Blk 807/Deck 1B,460807-01,SG-460807-001,Parking,"{'city': 'Singapore', 'street': '807 Chai Chee Road', 'country': 'SG', 'zipcode': '460807', 'building': '', 'neighborhood': ''}",SRID=4326;POINT (103.922862 1.327365),Open,19,103.922862,1.327365,1.0,16
bedok-chaicheestreet-blk53,Bedok/Chai Chee Street/Blk 53,460053-01,SG-460053-001,Parking,"{'city': 'Singapore', 'street': '53 Chai Chee Street', 'country': 'SG', 'zipcode': '460053', 'building': '', 'neighborhood': ''}",SRID=4326;POINT (103.921295 1.328941),Open,19,103.921295,1.328941,0.0,16
bidadari-bidadariparkdrive-blk106-deck2a,Bidadari/Bidadari Park Drive/Blk 106/Deck 2A,340106-01,SG-340106-001,Parking,"{'city': 'Singapore', 'street': '106 Bidadari Park Drive', 'country': 'SG', 'zipcode': '340106', 'building': '', 'neighborhood': ''}",SRID=4326;POINT (103.8706 1.333517),Open,25,103.8706,1.333517,1.0,17
bishan-bishanst11-blk152a-deck1b,Bishan/Bishan St 11/Blk 152A/Deck 1B,571152-01,SG-571152-001,Parking,"{'city': 'Singapore', 'street': '152A Bishan Street 11', 'country': 'SG', 'zipcode': '571152'}",SRID=4326;POINT (103.85474 1.34516),Open,4,103.85474,1.34516,1.0,18
bishan-bishanst22-blk282-deck2,Bishan/Bishan St 22/Blk 282/Deck 2,570282-01,SG-570282-001,Parking,"{'city': 'Singapore', 'street': '282 Bishan Street 22', 'country': 'SG', 'zipcode': '570282'}",SRID=4326;POINT (103.844633 1.358166),Open,4,103.844633,1.358166,1.0,19
bishan-bishanstreet12-blk112,Bishan/Bishan Street 12/Blk 112,570112-01,SG-570112-001,Parking,"{'city': 'Singapore', 'street': '112 Bishan Street 12', 'country': 'SG', 'zipcode': '570112', 'building': '', 'neighborhood': ''}",SRID=4326;POINT (103.848871 1.346756),Open,4,103.848871,1.346756,0.0,20
bishan-bishanstreet13-blk186,Bishan/Bishan Street 13/Blk 186,570186-01,SG-570186-001,Parking,"{'city': 'Singapore', 'street': '186 Bishan Street 13', 'country': 'SG', 'zipcode': '570186', 'building': '', 'neighborhood': ''}",SRID=4326;POINT (103.852838 1.349585),Open,4,103.852838,1.349585,0.0,20
bishan-bishanstreet13-blk514-level3,Bishan/Bishan Street 13/Blk 514/Level 3,570514-01,SG-570514-001,Parking,"{'city': 'Singapore', 'street': '514 Bishan Street 13', 'country': 'SG', 'zipcode': '570514', 'building': '', 'neighborhood': ''}",SRID=4326;POINT (103.849647 1.350164),Open,4,103.849647,1.350164,1.0,20
bishan-shunfuroad-blk320-deck3a,Bishan/Shunfu Road/Blk 320/Deck 3A,570320-01,SG-570320-001,Parking,"{'city': 'Singapore', 'street': '320 Shunfu Road, Shunfu Mart', 'country': 'SG', 'zipcode': '570320', 'building': '', 'neighborhood': ''}",SRID=4326;POINT (103.836832 1.35221),Open,4,103.836832,1.35221,1.0,21
bukitbatok-bukitbatokeastavenue5-blk241a-deck1a,Bukit Batok/Bukit Batok East Avenue 5/Blk 241A/Deck 1A,651241-01,SG-651241-001,Parking,"{'city': 'Singapore', 'street': '241A Bukit Batok East Avenue 5', 'country': 'SG', 'zipcode': '651241', 'building': '', 'neighborhood': ''}",SRID=4326;POINT (103.755227 1.350931),Open,5,103.755227,1.350931,1.0,22
bukitbatok-bukitbatokeastavenue6-blk292-deck2a,Bukit Batok/Bukit Batok East Avenue 6/Blk 292/Deck 2A,650292-01,SG-650292-001,Parking,"{'city': 'Singapore', 'street': '292 Bukit Batok East Avenue 6', 'country': 'SG', 'zipcode': '650292', 'building': '', 'neighborhood': ''}",SRID=4326;POINT (103.755356 1.344479),Open,5,103.755356,1.344479,1.0,23
bukitbatok-bukitbatokstreet31-blk307,Bukit Batok/Bukit Batok Street 31/Blk 307,650301-01,SG-650301-001,Parking,"{'city': 'Singapore', 'street': '301/309 Bukit Batok Street 31', 'country': 'SG', 'zipcode': '650301', 'building': '', 'neighborhood': ''}",SRID=4326;POINT (103.748348 1.358056),Open,5,103.748348,1.358056,1.0,24
bukitbatok-bukitbatokstreet33-blk319,Bukit Batok/Bukit Batok Street 33/Blk 319,650319-01,SG-650319-001,Parking,"{'city': 'Singapore', 'street': '319 Bukit Batok Street 33', 'country': 'SG', 'zipcode': '650319', 'building': '', 'neighborhood': ''}",SRID=4326;POINT (103.746545 1.361125),Open,5,103.746545,1.361125,0.0,24
bukitbatok-bukitbatokstreet34-blk346,Bukit Batok/Bukit Batok Street 34/Blk 346,650346-01,SG-650346-001,Parking,"{'city': 'Singapore', 'street': '346 Bukit Batok Street 34', 'country': 'SG', 'zipcode': '650346', 'building': '', 'neighborhood': ''}",SRID=4326;POINT (103.750963 1.362466),Open,5,103.750963,1.362466,1.0,25
bukitbatok-bukitbatokstreet52-blk537,Bukit Batok/Bukit Batok Street 52/Blk 537,650537-01,SG-650537-001,Parking,"{'city': 'Singapore', 'street': '537 Bukit Batok Street 52', 'country': 'SG', 'zipcode': '650537', 'building': '', 'neighborhood': ''}",SRID=4326;POINT (103.751187 1.355013),Open,5,103.751187,1.355013,0.0,24
bukitbatok-bukitbatokwestav8-blk154a-deck3a,Bukit Batok/Bukit Batok West Av 8/Blk 154A/Deck 3A,651154-01,SG-651154-001,Station,"{'city': 'Singapore', 'street': '154A Bukit Batok West Avenue', 'country': 'SG', 'zipcode': '651154'}",SRID=4326;POINT (103.743757 1.347503),Open,5,103.743757,1.347503,0.0,27
bukitbatok-bukitbatokwestavenue5-blk395a-deck3b,Bukit Batok/Bukit Batok West Avenue 5/Blk 395A/Deck 3B,651395-01,SG-651395-001,Parking,"{'city': 'Singapore', 'street': '395A Bukit Batok West Avenue 5', 'country': 'SG', 'zipcode': '651395', 'building': '', 'neighborhood': ''}",SRID=4326;POINT (103.752021 1.3643),Open,5,103.752021,1.3643,0.0,25
bukitbatok-bukitbatokwestavenue5-blk436-deck1a,Bukit Batok/Bukit Batok West Avenue 5/Blk 436/Deck 1A,650436-01,SG-650436-001,Parking,"{'city': 'Singapore', 'street': '436 Bukit Batok West Avenue 5', 'country': 'SG', 'zipcode': '650436', 'building': '', 'neighborhood': ''}",SRID=4326;POINT (103.739499 1.358769),Open,5,103.739499,1.358769,1.0,26
bukitbatok-bukitbatokwestavenue6-blk102,Bukit Batok/Bukit Batok West Avenue 6/Blk 102,650102-01,SG-650102-001,Parking,"{'city': 'Singapore', 'street': '102 Bukit Batok West Avenue 6', 'country': 'SG', 'zipcode': '650102', 'building': '', 'neighborhood': ''}",SRID=4326;POINT (103.747634 1.347412),Open,5,103.747634,1.347412,0.0,27
bukitbatok-bukitbatokwestavenue6-blk194-deck2a,Bukit Batok/Bukit Batok West Avenue 6/Blk 194/Deck 2A,650194-01,SG-650194-001,Parking,"{'city': 'Singapore', 'street': '194 Bukit Batok West Avenue 6', 'country': 'SG', 'zipcode': '650194', 'building': '', 'neighborhood': ''}",SRID=4326;POINT (103.745535 1.344765),Open,5,103.745535,1.344765,1.0,27
bukitbatok-bukitbatokwestavenue7-blk404a-deck2b,Bukit Batok/Bukit Batok West Avenue 7/Blk 404A/Deck 2B,651404-01,SG-651404-001,Parking,"{'city': 'Singapore', 'street': '404A Bukit Batok West Avenue 7', 'country': 'SG', 'zipcode': '651404', 'building': '', 'neighborhood': ''}",SRID=4326;POINT (103.745317 1.365462),Open,5,103.745317,1.365462,1.0,28
bukitbatok-bukitbatokwestavenue8-blk440-deck2b,Bukit Batok/Bukit Batok West Avenue 8/Blk 440/Deck 2B,650440-01,SG-650440-001,Parking,"{'city': 'Singapore', 'street': '440 Bukit Batok West Avenue 8', 'country': 'SG', 'zipcode': '650440', 'building': '', 'neighborhood': ''}",SRID=4326;POINT (103.739325 1.355694),Open,5,103.739325,1.355694,0.0,26
bukitmerah-boontiongroad-blk11a-deck1b,Bukit Merah/Boon Tiong Road/Blk 11A/Deck 1B,161011-01,SG-161011-001,Parking,"{'city': 'Singapore', 'street': '11A Boon Tiong Road', 'country': 'SG', 'zipcode': '161011', 'building': '', 'neighborhood': ''}",SRID=4326;POINT (103.829076 1.286326),Open,6,103.829076,1.286326,0.0,31
bukitmerah-bukitmerahcentral-blk119-deck1a,Bukit Merah/Bukit Merah Central/Blk 119/Deck 1A,150119-01,SG-150119-001,Parking,"{'city': 'Singapore', 'street': '119 Bukit Merah Central', 'country': 'SG', 'zipcode': '150119', 'building': '', 'neighborhood': ''}",SRID=4326;POINT (103.816794 1.282586),Open,6,103.816794,1.282586,1.0,29
bukitmerah-bukitmerahview-blk129a-deck2a,Bukit Merah/Bukit Merah View/Blk 129A/Deck 2A,151129-01,SG-151129-001,Parking,"{'city': 'Singapore', 'street': '129A Bukit Merah View', 'country': 'SG', 'zipcode': '151129', 'building': '', 'neighborhood': ''}",SRID=4326;POINT (103.823372 1.283532),Open,6,103.823372,1.283532,0.0,32
bukitmerah-bukitpurmeiroad-blk109,Bukit Merah/Bukit Purmei Road/Blk 109,090109-01,SG-090109-001,Parking,"{'city': 'Singapore', 'street': '109 Bukit Purmei Road', 'country': 'SG', 'zipcode': '090109', 'building': '', 'neighborhood': ''}",SRID=4326;POINT (103.8258 1.273803),Open,6,103.8258,1.273803,1.0,30
bukitmerah-deltaavenue-blk4,Bukit Merah/Delta Avenue/Blk 4,160005-01,SG-160005-001,Parking,"{'city': 'Singapore', 'street': 'Blk 1/5 Delta Avenue', 'country': 'SG', 'zipcode': '160005', 'building': '', 'neighborhood': ''}",SRID=4326;POINT (103.82644 1.292133),Open,6,103.82644,1.292133,0.0,31
bukitmerah-depotroad-blk104c-deck2a,Bukit Merah/Depot Road/Blk 104C/Deck 2A,103104-01,SG-103104-001,Parking,"{'city': 'Singapore', 'street': '104C Depot Road', 'country': 'SG', 'zipcode': '103104', 'building': '', 'neighborhood': ''}",SRID=4326;POINT (103.811561 1.280624),Open,6,103.811561,1.280624,0.0,35
bukitmerah-evertonpark-blk6a-deck1b,Bukit Merah/Everton Park/Blk 6A/Deck 1B,082006-01,SG-082006-001,Parking,"{'city': 'Singapore', 'street': '6A Everton Park', 'country': 'SG', 'zipcode': '082006', 'building': '', 'neighborhood': ''}",SRID=4326;POINT (103.8389 1.27625),Open,6,103.8389,1.27625,0.0,46
bukitmerah-havelockroad-blk51-deck2b,Bukit Merah/Havelock Road/Blk 51/Deck 2B,161051-01,SG-161051-001,Parking,"{'city': 'Singapore', 'street': '51 Havelock Road', 'country': 'SG', 'zipcode': '161051', 'building': '', 'neighborhood': ''}",SRID=4326;POINT (103.827468 1.290048),Open,6,103.827468,1.290048,1.0,31
bukitmerah-hendersonroad-blk96-deck1a,Bukit Merah/Henderson Road/Blk 96/Deck 1A,150096-01,SG-150096-001,Parking,"{'city': 'Singapore', 'street': '96 Henderson Road', 'country': 'SG', 'zipcode': '150096', 'building': '', 'neighborhood': ''}",SRID=4326;POINT (103.821375 1.287793),Open,6,103.821375,1.287793,0.0,34
bukitmerah-jalanbukitmerah-blk28,Bukit Merah/Jalan Bukit Merah/Blk 28,152028-01,SG-152028-001,Parking,"{'city': 'Singapore', 'street': '28 Jalan Bukit Merah', 'country': 'SG', 'zipcode': '152028', 'building': '', 'neighborhood': ''}",SRID=4326;POINT (103.809979 1.28625),Open,6,103.809979,1.28625,0.0,33
bukitmerah-jalanmembina-blk26-deck2a,Bukit Merah/Jalan Membina/Blk 26/Deck 2A,161026-01,SG-161026-001,Parking,"{'city': 'Singapore', 'street': '26 Jalan Membina', 'country': 'SG', 'zipcode': '161026', 'building': '', 'neighborhood': ''}",SRID=4326;POINT (103.825489 1.28294),Open,6,103.825489,1.28294,1.0,32
bukitmerah-jalanrumahtinggi-blk37a-deck3b,Bukit Merah/Jalan Rumah Tinggi/Blk 37A/Deck 3B,151037-01,SG-151037-001,Parking,"{'city': 'Singapore', 'street': '37A Jalan Rumah Tinggi', 'country': 'SG', 'zipcode': '151037', 'building': '', 'neighborhood': ''}",SRID=4326;POINT (103.81042 1.289373),Open,6,103.81042,1.289373,1.0,33
bukitmerah-kimtianroad-blk126-deck1a,Bukit Merah/Kim Tian Road/Blk 126/Deck 1A,160126-01,SG-160126-001,Parking,"{'city': 'Singapore', 'street': '126 Kim Tian Road', 'country': 'SG', 'zipcode': '160126', 'building': '', 'neighborhood': ''}",SRID=4326;POINT (103.829378 1.282619),Open,6,103.829378,1.282619,0.0,32
bukitmerah-lengkokbahru-blk64-deckb2b,Bukit Merah/Lengkok Bahru/Blk 64/Deck B2B,150064-01,SG-150064-001,Parking,"{'city': 'Singapore', 'street': '64 Lengkok Bahru', 'country': 'SG', 'zipcode': '150064', 'building': '', 'neighborhood': ''}",SRID=4326;POINT (103.815131 1.289473),Open,6,103.815131,1.289473,0.0,34
bukitmerah-redhillrd-blk73-deck1a,Bukit Merah/Redhill Rd/Blk 73/Deck 1A,150073-02,SG-150073-002,Parking,"{'city': 'Singapore', 'street': '73 Redhill Road', 'country': 'SG', 'zipcode': '150073'}",SRID=4326;POINT (103.81733 1.288028),Open,6,103.81733,1.288028,1.0,34
bukitmerah-telokblangahheights-blk70-deck1a,Bukit Merah/Telok Blangah Heights/Blk 70/Deck 1A,100070-01,SG-100070-001,Parking,"{'city': 'Singapore', 'street': '70 Telok Blangah Heights', 'country': 'SG', 'zipcode': '100070', 'building': '', 'neighborhood': ''}",SRID=4326;POINT (103.810936 1.276491),Open,6,103.810936,1.276491,1.0,35
bukitmerah-telokblangahrise-blk32,Bukit Merah/Telok Blangah Rise/Blk 32,090032-01,SG-090032-001,Parking,"{'city': 'Singapore', 'street': '32 Telok Blangah Rise', 'country': 'SG', 'zipcode': '090032', 'building': '', 'neighborhood': ''}",SRID=4326;POINT (103.82106 1.273125),Open,6,103.82106,1.273125,1.0,36
bukitmerah-telokblangahstreet31-blk90-deck1b,Bukit Merah/Telok Blangah Street 31/Blk 90/Deck 1B,100090-01,SG-100090-001,Parking,"{'city': 'Singapore', 'street': '90 Telok Blangah Street 31', 'country': 'SG', 'zipcode': '100090', 'building': '', 'neighborhood': ''}",SRID=4326;POINT (103.807236 1.277387),Open,6,103.807236,1.277387,0.0,35
bukitmerah-telokblangahstreet32-blk78a-deck1b,Bukit Merah/Telok Blangah Street 32/Blk 78A/Deck 1B,101078-01,SG-101078-001,Parking,"{'city': 'Singapore', 'street': '78A Telok Blangah street 32', 'country': 'SG', 'zipcode': '101078', 'building': '', 'neighborhood': ''}",SRID=4326;POINT (103.808952 1.273384),Open,6,103.808952,1.273384,0.0,35
bukitpanjang-bukitpanjangringroad-blk449a-deck2b,Bukit Panjang/Bukit Panjang Ring Road/Blk 449A/Deck 2B,671449-01,SG-671449-001,Parking,"{'city': 'Singapore', 'street': '449A Bukit Panjang Ring Road', 'country': 'SG', 'zipcode': '671449', 'building': '', 'neighborhood': ''}",SRID=4326;POINT (103.772754 1.383897),Open,7,103.772754,1.383897,0.0,38
bukitpanjang-bukitpanjangringroad-blk541a-deck1b,Bukit Panjang/Bukit Panjang Ring Road/Blk 541A/Deck 1B,671541-01,SG-671541-001,Parking,"{'city': 'Singapore', 'street': '541A Bukit Panjang Ring Road', 'country': 'SG', 'zipcode': '671541', 'building': '', 'neighborhood': ''}",SRID=4326;POINT (103.76305 1.382666),Open,7,103.76305,1.382666,1.0,37
bukitpanjang-fajarrd-blk443-deck1b,Bukit Panjang/Fajar Rd/Blk 443/Deck 1B,670443-01,SG-670443-001,Parking,"{'city': 'Singapore', 'street': '443 Fajar Road', 'country': 'SG', 'zipcode': '670443', 'building': '', 'neighborhood': ''}",SRID=4326;POINT (103.7706337 1.3810266),Open,7,103.7706337,1.3810266,0.0,38
bukitpanjang-fajarroad-blk422a-deck3a,Bukit Panjang/Fajar Road/Blk 422A/Deck 3A,671422-01,SG-671422-001,Parking,"{'city': 'Singapore', 'street': '422A Fajar Road', 'country': 'SG', 'zipcode': '671422', 'building': '', 'neighborhood': ''}",SRID=4326;POINT (103.769637 1.38509),Open,7,103.769637,1.38509,1.0,38
bukitpanjang-gangsaroad-blk152a-deck2a,Bukit Panjang/Gangsa Road/Blk 152A/Deck 2A,671152-01,SG-671152-001,Parking,"{'city': 'Singapore', 'street': '152A Gangsa Road', 'country': 'SG', 'zipcode': '671152', 'building': '', 'neighborhood': ''}",SRID=4326;POINT (103.765424 1.37553),Open,7,103.765424,1.37553,1.0,39
bukitpanjang-jelapangroad-blk518a-deck2a,Bukit Panjang/Jelapang Road/Blk 518A/Deck 2A,671518-01,SG-671518-001,Parking,"{'city': 'Singapore', 'street': '518A Jelapang Road', 'country': 'SG', 'zipcode': '671518', 'building': '', 'neighborhood': ''}",SRID=4326;POINT (103.766896 1.386632),Open,7,103.766896,1.386632,1.0,40
bukitpanjang-jeleburoad-blk181a-deck1a,Bukit Panjang/Jelebu Road/Blk 181A/Deck 1A,671181-01,SG-671181-001,Parking,"{'city': 'Singapore', 'street': '181A Jelebu Road', 'country': 'SG', 'zipcode': '671181', 'building': '', 'neighborhood': ''}",SRID=4326;POINT (103.763191 1.379109),Open,7,103.763191,1.379109,0.0,37
bukitpanjang-lompangrd-blk170a-deck1a,Bukit Panjang/Lompang Rd/Blk 170A/Deck 1A,671170-01,SG-671170-001,Parking,"{'city': 'Singapore', 'street': '170A Lompang Road', 'country': 'SG', 'zipcode': '671170'}",SRID=4326;POINT (103.765156 1.378999),Open,7,103.765156,1.378999,0.0,39
bukitpanjang-petirroad-blk140,Bukit Panjang/Petir Road/Blk 140,670140-01,SG-670140-001,Parking,"{'city': 'Singapore', 'street': '140 Petir Road', 'country': 'SG', 'zipcode': '670140', 'building': '', 'neighborhood': ''}",SRID=4326;POINT (103.769068 1.375471),Open,7,103.769068,1.375471,0.0,39
bukitpanjang-segarroad-blk476a-deck1,Bukit Panjang/Segar Road/Blk 476A/Deck 1,671476-01,SG-671476-001,Parking,"{'city': 'Singapore', 'street': '476A Segar Road', 'country': 'SG', 'zipcode': '671476', 'building': '', 'neighborhood': ''}",SRID=4326;POINT (103.773537 1.389109),Open,7,103.773537,1.389109,1.0,41
bukitpanjang-segarroad-blk547-deck1a,Bukit Panjang/Segar Road/Blk 547/Deck 1A,670547-01,SG-670547-001,Parking,"{'city': 'Singapore', 'street': '547 Segar Road', 'country': 'SG', 'zipcode': '670547', 'building': '', 'neighborhood': ''}",SRID=4326;POINT (103.7696 1.388124),Open,7,103.7696,1.388124,0.0,38
bukitpanjang-senjalink-blk651a-deck1,Bukit Panjang/Senja Link/Blk 651A/Deck 1,671651-01,SG-671651-001,Parking,"{'city': 'Singapore', 'street': '651A Senja Link', 'country': 'SG', 'zipcode': '671651', 'building': '', 'neighborhood': ''}",SRID=4326;POINT (103.764451 1.386964),Open,7,103.764451,1.386964,0.0,40
bukitpanjang-senjaroad-blk636-deck1a,Bukit Panjang/Senja Road/Blk 636/Deck 1A,670636-01,SG-670636-001,Parking,"{'city': 'Singapore', 'street': '636 Senja Road', 'country': 'SG', 'zipcode': '670636', 'building': '', 'neighborhood': ''}",SRID=4326;POINT (103.758408 1.38713),Open,7,103.758408,1.38713,1.0,42
bukittimah-170upperbukittimahroadinfrontbukittimahshoppingcentre,Bukit Timah/170 Upper Bukit Timah Road (Infront Bukit Timah Shopping Centre),588179-01,SG-588179-001,Parking,"{'city': 'Singapore', 'street': '170 Upper Bukit Timah Road', 'country': 'SG', 'zipcode': '588179', 'building': '', 'neighborhood': ''}",SRID=4326;POINT (103.775637 1.343312),Open,8,103.775637,1.343312,1.0,43
bukittimah-queensroad-blk4-deck1a,Bukit Timah/Queens Road/Blk 4/Deck 1A,260003-01,SG-260003-001,Parking,"{'city': 'Singapore', 'street': ""3 Queen's Road"", 'country': 'SG', 'zipcode': '260003', 'building': '', 'neighborhood': ''}",SRID=4326;POINT (103.808169 1.318738),Open,8,103.808169,1.318738,1.0,44
bukittimah-tohyidrive-blk5,Bukit Timah/Toh Yi Drive/Blk 5,591501-01,SG-591501-001,Parking,"{'city': 'Singapore', 'street': 'Blk 1/19 Toh Yi Drive', 'country': 'SG', 'zipcode': '591501', 'building': '', 'neighborhood': ''}",SRID=4326;POINT (103.775112 1.338165),Open,8,103.775112,1.338165,1.0,45
central-109northbridgeroad-funanmall-basement3-liftlobbyb,Central/109 North Bridge Road/Funan Mall/Basement 3/Lift Lobby B,179097-01,SG-179097-001,Parking,"{'city': 'Singapore', 'street': '109 North Bridge Road', 'country': 'SG', 'zipcode': '179097', 'building': '', 'neighborhood': ''}",SRID=4326;POINT (103.849823 1.291599),Open,28,103.849823,1.291599,0.0,49
central-146prinsepstreet-oppositeburlingtonsquare,Central/146 Prinsep Street/Opposite Burlington Square,188658-01,SG-188658-001,Parking,"{'city': 'Singapore', 'street': '146 Prinsep Street', 'country': 'SG', 'zipcode': '188658', 'building': '', 'neighborhood': ''}",SRID=4326;POINT (103.852194 1.302834),Open,54,103.852194,1.302834,0.0,56
bukitmerah-1cantonmentroad-blk1-deck1,Central/1 Cantonment Road/Blk 1/Deck 1,080001-01,SG-080001-001,Parking,"{'city': 'Singapore', 'street': '1 Cantonment Road', 'country': 'SG', 'zipcode': '080001', 'building': '', 'neighborhood': ''}",SRID=4326;POINT (103.841694 1.277251),Open,52,103.841694,1.277251,1.0,46
central-1esplanadedrive-basement1-liftlobbyb,Central/1 Esplanade Drive/Basement 1/Lift Lobby B,038981-01,SG-038981-001,Parking,"{'city': 'Singapore', 'street': '1 Esplanade Drive', 'country': 'SG', 'zipcode': '038981', 'building': '', 'neighborhood': ''}",SRID=4326;POINT (103.85577 1.289691),Open,28,103.85577,1.289691,1.0,47
central-1magazineroad-centralmall-level2,Central/1 Magazine Road/Central Mall/Level 2,059567-01,SG-059567-001,Parking,"{'city': 'Singapore', 'street': '1 Magazine road, Central mall', 'country': 'SG', 'zipcode': '059567', 'building': '', 'neighborhood': ''}",SRID=4326;POINT (103.8424566 1.2882195),Open,55,103.8424566,1.2882195,0.0,49
central-259outramroadsengpohroad,Central/259 Outram Road (Seng Poh Road),169061-01,SG-169061-001,Parking,"{'city': 'Singapore', 'street': '259 Outram Road (Seng Poh Road)', 'country': 'SG', 'zipcode': '169061', 'building': '', 'neighborhood': ''}",SRID=4326;POINT (103.834902 1.285034),Open,6,103.834902,1.285034,1.0,48
central-3erivervalleyroad-clarkquayblke-level3,Central/3E River Valley Road/Clark Quay Blk E/Level 3,179024-01,SG-179024-001,Parking,"{'city': 'Singapore', 'street': '3E River Valley Road', 'country': 'SG', 'zipcode': '179024', 'building': '', 'neighborhood': ''}",SRID=4326;POINT (103.846146 1.290715),Open,55,103.846146,1.290715,1.0,49
central-5purvisstreet,Central/5 Purvis Street,188584-01,SG-188584-001,Parking,"{'city': 'Singapore', 'street': '5 Purvis Street', 'country': 'SG', 'zipcode': '188584', 'building': '', 'neighborhood': ''}",SRID=4326;POINT (103.85496 1.296717),Open,28,103.85496,1.296717,0.0,56
central-9rafflesplace-republicplaza-level4,Central/9 Raffles Place/Republic Plaza/Level 4,048619-01,SG-048619-001,Parking,"{'city': 'Singapore', 'street': '9 Raffles Place, Republic Plaza', 'country': 'SG', 'zipcode': '048619', 'building': '', 'neighborhood': ''}",SRID=4326;POINT (103.850455 1.283658),Open,28,103.850455,1.283658,1.0,50
central-claymorerd-21,Central/Claymore Rd/21,229545-01,SG-229545-001,Station,"{'city': 'Singapore', 'street': 'Claymore Road 21', 'country': 'SG', 'zipcode': '229545'}",SRID=4326;POINT (103.8301985 1.3077385),Open,30,103.8301985,1.3077385,1.0,51
central-kelantanlane-blk31-deck1a,Central/Kelantan Lane/Blk 31/Deck 1A,200031-01,SG-200031-001,Parking,"{'city': 'Singapore', 'street': '31 Kelantan Lane', 'country': 'SG', 'zipcode': '200031', 'building': '', 'neighborhood': ''}",SRID=4326;POINT (103.856969 1.306398),Open,54,103.856969,1.306398,1.0,52
central-kitchenerrd-93,Central/Kitchener Rd/93,208510-01,SG-208510-001,Station,"{'city': 'Singapore', 'street': '93 Kitchener Road', 'country': 'SG', 'zipcode': '208510', 'building': '', 'neighborhood': ''}",SRID=4326;POINT (103.8588033 1.3085176),Open,46,103.8588033,1.3085176,0.0,52
central-mohamedsultanrd-28,Central/Mohamed Sultan Rd/28,238275-01,SG-238275-001,Station,"{'city': 'Singapore', 'street': '28 Mohamed Sultan Road', 'country': 'SG', 'zipcode': '238275'}",SRID=4326;POINT (103.8413 1.29288),Open,53,103.8413,1.29288,1.0,53
central-mosquest-28,Central/Mosque St/28,059506-01,SG-059506-001,Station,"{'city': 'Singapore', 'street': '28 Mosque Street', 'country': 'SG', 'zipcode': '059506', 'building': '', 'neighborhood': ''}",SRID=4326;POINT (103.84541 1.28345),Open,52,103.84541,1.28345,1.0,54
central-orchardroad-plazasingapura-deck4,Central/Orchard Road/Plaza Singapura/Deck 4,238839-01,SG-238839-001,Parking,"{'city': 'Singapore', 'street': '68 Orchard Road', 'country': 'SG', 'zipcode': '238839', 'building': '', 'neighborhood': ''}",SRID=4326;POINT (103.845078 1.300802),Open,34,103.845078,1.300802,1.0,55
central-peckseahst-23,Central/Peck Seah St/23,079313-01,SG-079313-001,Station,"{'city': 'Singapore', 'street': '23 Peck Seah Street', 'country': 'SG', 'zipcode': '079313', 'building': '', 'neighborhood': ''}",SRID=4326;POINT (103.84494 1.27767),Open,28,103.84494,1.27767,0.0,46
central-queenst-269b,Central/Queen St/269B,182269-01,SG-182269-001,Station,"{'city': 'Singapore', 'street': '269B Queen Street', 'country': 'SG', 'zipcode': '182269', 'building': '', 'neighborhood': ''}",SRID=4326;POINT (103.8539147 1.3001556),Open,54,103.8539147,1.3001556,1.0,56
central-racecourselane-4,Central/Race Course Lane/4,218732-01,SG-218732-001,Station,"{'city': 'Singapore', 'street': '4 Race Course Lane', 'country': 'SG', 'zipcode': '218732'}",SRID=4326;POINT (103.8531 1.30954),Open,54,103.8531,1.30954,0.0,107
central-stanleyst-3,Central/Stanley St/3,068722-01,SG-068722-001,Station,"{'city': 'Singapore', 'street': '3 Stanley Street', 'country': 'SG', 'zipcode': '068722'}",SRID=4326;POINT (103.847743 1.279759),Open,28,103.847743,1.279759,0.0,54
central-sultangate-1,Central/Sultan Gate/1,198474-01,SG-198474-001,Station,"{'city': 'Singapore', 'street': '1 Sultan Gate', 'country': 'SG', 'zipcode': '198474'}",SRID=4326;POINT (103.86091 1.30118),Open,54,103.86091,1.30118,1.0,57
central-tanqueelanst-38,Central/Tan Quee Lan St/38,188108-02,SG-188108-002,Station,"{'city': 'Singapore', 'street': '38 Tan Quee Lan Street', 'country': 'SG', 'zipcode': '188108'}",SRID=4326;POINT (103.85651 1.29872),Open,28,103.85651,1.29872,0.0,56
changi-changiairportterminal2-carpark2b-level2m-liftlobby1,Changi/Changi Airport Terminal 2/Carpark 2B/Level 2M/Lift Lobby 1,819643-01,SG-819643-001,Parking,"{'city': 'Singapore', 'street': '60 Airport Boulevard, Terminal 2', 'country': 'SG', 'zipcode': '819643', 'building': '', 'neighborhood': ''}",SRID=4326;POINT (103.990089 1.358059),Open,10,103.990089,1.358059,1.0,58
choachukang-choachukangave1-blk809-deck1a,Choa Chu Kang/Choa Chu Kang Ave 1/Blk 809/Deck 1A,680809-01,SG-680809-001,Parking,"{'city': 'Singapore', 'street': '809 Choa Chu Kang Avenue 1', 'country': 'SG', 'zipcode': '680809', 'building': '', 'neighborhood': ''}",SRID=4326;POINT (103.7445 1.3758),Open,11,103.7445,1.3758,1.0,59
choachukang-choachukangave4-blk429a-deck1b,Choa Chu Kang/Choa Chu Kang Ave 4/Blk 429A/Deck 1B,681429-01,SG-681429-001,Parking,"{'city': 'Singapore', 'street': '429A Choa Chu Kang Avenue 4', 'country': 'SG', 'zipcode': '681429', 'building': '', 'neighborhood': ''}",SRID=4326;POINT (103.740927 1.383515),Open,11,103.740927,1.383515,0.0,60
choachukang-choachukangavenue4-lotone-deckb2,Choa Chu Kang/Choa Chu Kang Avenue 4/Lot one/Deck B2,689812-01,SG-689812-001,Parking,"{'city': 'Singapore', 'street': '21 Choa Chu Kang Avenue 4', 'country': 'SG', 'zipcode': '689812', 'building': '', 'neighborhood': ''}",SRID=4326;POINT (103.744922 1.38525),Open,11,103.744922,1.38525,1.0,60
choachukang-choachukangavenue5-blk486a-deck2b,Choa Chu Kang/Choa Chu Kang Avenue 5/Blk 486A/Deck 2B,681486-01,SG-681486-001,Parking,"{'city': 'Singapore', 'street': '486A Choa Chu Kang Avenue 5', 'country': 'SG', 'zipcode': '681486', 'building': '', 'neighborhood': ''}",SRID=4326;POINT (103.73838 1.375141),Open,11,103.73838,1.375141,1.0,61
choachukang-choachukangcentral-blk205,Choa Chu Kang/Choa Chu Kang Central/Blk 205,680205-01,SG-680205-001,Parking,"{'city': 'Singapore', 'street': '205 Choa Chu Kang Central', 'country': 'SG', 'zipcode': '680205', 'building': '', 'neighborhood': ''}",SRID=4326;POINT (103.7481 1.381051),Open,11,103.7481,1.381051,1.0,62
choachukang-choachukangcentral-deck2b-blk227a,Choa Chu Kang/Choa Chu Kang Central/Deck 2B/Blk 227A,681227-01,SG-681227-001,Parking,"{'city': 'Singapore', 'street': '227A Choa Chu Kang Central', 'country': 'SG', 'zipcode': '681227', 'building': '', 'neighborhood': ''}",SRID=4326;POINT (103.745441 1.380552),Open,11,103.745441,1.380552,0.0,62
choachukang-choachukangcrescent-blk668a-deck2a,Choa Chu Kang/Choa Chu Kang Crescent/Blk 668A/Deck 2A,681668-01,SG-681668-001,Parking,"{'city': 'Singapore', 'street': '668A Choa Chu Kang Crescent', 'country': 'SG', 'zipcode': '681668', 'building': '', 'neighborhood': ''}",SRID=4326;POINT (103.75027 1.40154),Open,11,103.75027,1.40154,0.0,64
choachukang-choachukangcrescent-blk678a-deck1b,Choa Chu Kang/Choa Chu Kang Crescent/Blk 678A/Deck 1B,681678-01,SG-681678-001,Parking,"{'city': 'Singapore', 'street': '678A Choa Chu Kang Crescent', 'country': 'SG', 'zipcode': '681678', 'building': '', 'neighborhood': ''}",SRID=4326;POINT (103.74481 1.401978),Open,11,103.74481,1.401978,0.0,64
choachukang-choachukangnorth6-blk792a-deck1a,Choa Chu Kang/Choa Chu Kang North 6/Blk 792A/Deck 1A,681792-01,SG-681792-001,Parking,"{'city': 'Singapore', 'street': '792A Choa Chu Kang North 6', 'country': 'SG', 'zipcode': '681792', 'building': '', 'neighborhood': ''}",SRID=4326;POINT (103.74949 1.395383),Open,11,103.74949,1.395383,1.0,63
choachukang-choachukangnorth7-deck2a-blk621a,Choa Chu Kang/Choa Chu Kang North 7/Deck 2A/Blk 621A,681621-01,SG-681621-001,Parking,"{'city': 'Singapore', 'street': '621A Choa Chu Kang North 7', 'country': 'SG', 'zipcode': '681621', 'building': '', 'neighborhood': ''}",SRID=4326;POINT (103.747491 1.399571),Open,11,103.747491,1.399571,1.0,64
choachukang-choachukangstreet51-blk502a-deck1b,Choa Chu Kang/Choa Chu Kang Street 51/Blk 502A/Deck 1B,681502-01,SG-681502-001,Parking,"{'city': 'Singapore', 'street': '502A Choa Chu Kang Street 51', 'country': 'SG', 'zipcode': '681502', 'building': '', 'neighborhood': ''}",SRID=4326;POINT (103.74302 1.388849),Open,11,103.74302,1.388849,0.0,60
choachukang-teckwhyeave-blk146a-deck1a,Choa Chu Kang/Teck Whye Ave/Blk 146A/Deck 1A,681146-01,SG-681146-001,Parking,"{'city': 'Singapore', 'street': '146A Teck Whye Avenue S', 'country': 'SG', 'zipcode': '681146'}",SRID=4326;POINT (103.75332 1.38111),Open,11,103.75332,1.38111,1.0,65
choachukang-teckwhyelane-blk110,Choa Chu Kang/Teck Whye Lane/Blk 110,680110-01,SG-680110-001,Parking,"{'city': 'Singapore', 'street': '110 Teck Whye Lane', 'country': 'SG', 'zipcode': '680110', 'building': '', 'neighborhood': ''}",SRID=4326;POINT (103.75166 1.378033),Open,11,103.75166,1.378033,0.0,65
clementi-clementiavenue2-blk334-besidecaltex,Clementi/Clementi Avenue 2/Blk 334/Beside Caltex,120334-01,SG-120334-001,Parking,"{'city': 'Singapore', 'street': '334 Clementi Avenue 2', 'country': 'SG', 'zipcode': '120334', 'building': '', 'neighborhood': ''}",SRID=4326;POINT (103.768296 1.314724),Open,12,103.768296,1.314724,1.0,66
clementi-clementiavenue3-blk440-deck1a,Clementi/Clementi Avenue 3/Blk 440/Deck 1A,120440-01,SG-120440-001,Parking,"{'city': 'Singapore', 'street': '440 Clementi Avenue 3', 'country': 'SG', 'zipcode': '120440', 'building': '', 'neighborhood': ''}",SRID=4326;POINT (103.76392 1.31642),Open,12,103.76392,1.31642,1.0,67
clementi-clementiavenue4-blk312-deck1b,Clementi/Clementi Avenue 4/Blk 312/Deck 1B,120312-01,SG-120312-001,Parking,"{'city': 'Singapore', 'street': '312 Clementi Avenue 4', 'country': 'SG', 'zipcode': '120312', 'building': '', 'neighborhood': ''}",SRID=4326;POINT (103.764444 1.319651),Open,12,103.764444,1.319651,0.0,67
clementi-clementiweststreet1-blk602,Clementi/Clementi West Street 1/Blk 602,120601-01,SG-120601-001,Parking,"{'city': 'Singapore', 'street': 'Blk 602 Clementi West Street 1', 'country': 'SG', 'zipcode': '120601', 'building': '', 'neighborhood': ''}",SRID=4326;POINT (103.766838 1.304373),Open,12,103.766838,1.304373,0.0,68
clementi-clementiweststreet2-blk727,Clementi/Clementi West Street 2/Blk 727,120727-01,SG-120727-001,Parking,"{'city': 'Singapore', 'street': '727 Clementi West Street 2', 'country': 'SG', 'zipcode': '120727', 'building': '', 'neighborhood': ''}",SRID=4326;POINT (103.763558 1.304208),Open,12,103.763558,1.304208,1.0,68
clementi-westcoastdrive-blk501,Clementi/West Coast Drive/Blk 501,120503-01,SG-120503-001,Parking,"{'city': 'Singapore', 'street': '501 West Coast Drive', 'country': 'SG', 'zipcode': '120503', 'building': '', 'neighborhood': ''}",SRID=4326;POINT (103.75908 1.311329),Open,12,103.75908,1.311329,1.0,69
clementi-westcoastroad-blk708,Clementi/West Coast Road/Blk 708,120704-01,SG-120704-001,Parking,"{'city': 'Singapore', 'street': '704-714 West Coast Road', 'country': 'SG', 'zipcode': '120704', 'building': '', 'neighborhood': ''}",SRID=4326;POINT (103.761812 1.306052),Open,12,103.761812,1.306052,0.0,68
geylang-52simsplace-alongsimsplace,Geylang/52 Sims Place/Along Sims Place,380052-01,SG-380052-001,Parking,"{'city': 'Singapore', 'street': '52 Sims Place', 'country': 'SG', 'zipcode': '380052', 'building': '', 'neighborhood': ''}",SRID=4326;POINT (103.880106 1.316531),Open,13,103.880106,1.316531,1.0,70
geylang-aljuniedave2-blk118-deck2b,Geylang/Aljunied Ave 2/Blk 118/Deck 2B,380118-01,SG-380118-001,Parking,"{'city': 'Singapore', 'street': '118 Aljunied Avenue 2', 'country': 'SG', 'zipcode': '380118', 'building': '', 'neighborhood': ''}",SRID=4326;POINT (103.88772 1.320235),Open,13,103.88772,1.320235,0.0,75
geylang-aljuniedcrescent-blk104,Geylang/Aljunied Crescent/Blk 104,380104-01,SG-380104-001,Parking,"{'city': 'Singapore', 'street': '104 Aljunied Crescent', 'country': 'SG', 'zipcode': '380104', 'building': '', 'neighborhood': ''}",SRID=4326;POINT (103.883203 1.319996),Open,13,103.883203,1.319996,0.0,75
geylang-cassiacrescent-blk56a-deck1a,Geylang/Cassia Crescent/Blk 56A/Deck 1A,392056-01,SG-392056-001,Parking,"{'city': 'Singapore', 'street': '56A Cassia Crescent', 'country': 'SG', 'zipcode': '392056', 'building': '', 'neighborhood': ''}",SRID=4326;POINT (103.88389 1.310085),Open,13,103.88389,1.310085,1.0,71
geylang-circuitroad-blk17-deck2a,Geylang/Circuit Road/Blk 17/Deck 2A,370017-01,SG-370017-001,Parking,"{'city': 'Singapore', 'street': '17 Circuit Road', 'country': 'SG', 'zipcode': '370017', 'building': '', 'neighborhood': ''}",SRID=4326;POINT (103.888298 1.329583),Open,13,103.888298,1.329583,0.0,72
geylang-circuitroad-blk31a-deck1b,Geylang/Circuit Road/Blk 31A/Deck 1B,379497-01,SG-379497-001,Parking,"{'city': 'Singapore', 'street': '31A Circuit Road', 'country': 'SG', 'zipcode': '379497', 'building': '', 'neighborhood': ''}",SRID=4326;POINT (103.885573 1.329186),Open,13,103.885573,1.329186,0.0,72
geylang-circuitroad-blk66a-deck1a,Geylang/Circuit Road/Blk 66A/Deck 1A,371066-01,SG-371066-001,Parking,"{'city': 'Singapore', 'street': '66A Circuit Road', 'country': 'SG', 'zipcode': '371066', 'building': '', 'neighborhood': ''}",SRID=4326;POINT (103.88797 1.326411),Open,13,103.88797,1.326411,1.0,72
geylang-circuitroad-blk82-deck2a,Geylang/Circuit Road/Blk 82/Deck 2A,370082-01,SG-370082-001,Parking,"{'city': 'Singapore', 'street': '82 Circuit Road', 'country': 'SG', 'zipcode': '370082', 'building': '', 'neighborhood': ''}",SRID=4326;POINT (103.890261 1.324356),Open,13,103.890261,1.324356,0.0,72
geylang-eunoscrescent-blk12,Geylang/Eunos Crescent/Blk 12,400012-01,SG-400012-001,Parking,"{'city': 'Singapore', 'street': '12 Eunos Crescent', 'country': 'SG', 'zipcode': '400012', 'building': '', 'neighborhood': ''}",SRID=4326;POINT (103.905011 1.322604),Open,13,103.905011,1.322604,1.0,73
geylang-eunoscrescent-blk31a-deck1a,Geylang/Eunos Crescent/Blk 31A/Deck 1A,401031-01,SG-401031-001,Parking,"{'city': 'Singapore', 'street': '31A Eunos Crescent', 'country': 'SG', 'zipcode': '401031', 'building': '', 'neighborhood': ''}",SRID=4326;POINT (103.9017609 1.320225),Open,13,103.9017609,1.320225,0.0,73
geylang-geylanglorong21-51-demo,Geylang/Geylang Lorong 21/51/Demo,388466-01,SG-388466-001,Exhibition,"{'city': 'Singapore', 'street': '51 Geylang Lorong 21', 'country': 'SG', 'zipcode': '388466'}",SRID=4326;POINT (103.8794509 1.3157111),Decommissioned,13,103.8794509,1.3157111,0.0,70
geylang-haigroad-blk8,Geylang/Haig Road/Blk 8,430007-01,SG-430007-001,Parking,"{'city': 'Singapore', 'street': '8 Haig Road', 'country': 'SG', 'zipcode': '430007', 'building': '', 'neighborhood': ''}",SRID=4326;POINT (103.896451 1.31379),Open,13,103.896451,1.31379,1.0,74
geylang-pipitroad-blk91,Geylang/Pipit Road/Blk 91,370085-01,SG-370085-001,Parking,"{'city': 'Singapore', 'street': '85 to 92A Pipit Road', 'country': 'SG', 'zipcode': '370085', 'building': '', 'neighborhood': ''}",SRID=4326;POINT (103.886197 1.32276),Open,13,103.886197,1.32276,1.0,75
geylang-ubiavenue1-blk316,Geylang/Ubi Avenue 1/Blk 316,400316-01,SG-400316-001,Parking,"{'city': 'Singapore', 'street': '316 Ubi Avenue 1', 'country': 'SG', 'zipcode': '400316', 'building': '', 'neighborhood': ''}",SRID=4326;POINT (103.902736 1.32959),Open,13,103.902736,1.32959,1.0,76
geylang-ubiavenue1-blk326,Geylang/Ubi Avenue 1/Blk 326,400326-01,SG-400326-001,Parking,"{'city': 'Singapore', 'street': '326 Ubi Avenue 1', 'country': 'SG', 'zipcode': '400326', 'building': '', 'neighborhood': ''}",SRID=4326;POINT (103.904146 1.327319),Open,13,103.904146,1.327319,0.0,76
geylang-ubiavenue1-blk349,Geylang/Ubi Avenue 1/Blk 349,400349-01,SG-400349-001,Parking,"{'city': 'Singapore', 'street': '349 Ubi Avenue 1', 'country': 'SG', 'zipcode': '400349', 'building': '', 'neighborhood': ''}",SRID=4326;POINT (103.900892 1.325963),Open,13,103.900892,1.325963,0.0,76
hougang-buangkokcrescent-blk980-deck1a,Hougang/Buangkok Crescent/Blk 980/Deck 1A,530980-01,SG-530980-001,Parking,"{'city': 'Singapore', 'street': '980 Buangkok Crescent', 'country': 'SG', 'zipcode': '530980', 'building': '', 'neighborhood': ''}",SRID=4326;POINT (103.880138 1.380032),Open,35,103.880138,1.380032,1.0,77
hougang-buangkokcrescent-blk997-deck2a,Hougang/Buangkok Crescent/Blk 997/Deck 2A,530997-01,SG-530997-001,Parking,"{'city': 'Singapore', 'street': '997 Buangkok Crescent', 'country': 'SG', 'zipcode': '530997', 'building': '', 'neighborhood': ''}",SRID=4326;POINT (103.880711 1.385446),Open,35,103.880711,1.385446,1.0,78
hougang-hougangave9-blk933-deck1a,Hougang/Hougang Ave 9/Blk 933/Deck 1A,530933-01,SG-530933-001,Parking,"{'city': 'Singapore', 'street': '933 Hougang Avenue 9', 'country': 'SG', 'zipcode': '530933'}",SRID=4326;POINT (103.88252 1.37566),Open,35,103.88252,1.37566,1.0,79
hougang-hougangavenue1-blk118,Hougang/Hougang Avenue 1/Blk 118,530109-01,SG-530109-001,Parking,"{'city': 'Singapore', 'street': '109-127 Hougang Avenue 1', 'country': 'SG', 'zipcode': '530109', 'building': '', 'neighborhood': ''}",SRID=4326;POINT (103.887365 1.353316),Open,35,103.887365,1.353316,1.0,80
hougang-hougangavenue1-blk172a-deck1a,Hougang/Hougang Avenue 1/Blk 172A/Deck 1A,531172-01,SG-531172-001,Parking,"{'city': 'Singapore', 'street': '172A Hougang Avenue 1', 'country': 'SG', 'zipcode': '531172', 'building': '', 'neighborhood': ''}",SRID=4326;POINT (103.889005 1.350686),Open,35,103.889005,1.350686,0.0,80
hougang-hougangavenue2-blk707,Hougang/Hougang Avenue 2/Blk 707,530707-01,SG-530707-001,Parking,"{'city': 'Singapore', 'street': '707 Hougang Avenue 2', 'country': 'SG', 'zipcode': '530707', 'building': '', 'neighborhood': ''}",SRID=4326;POINT (103.888389 1.366507),Open,35,103.888389,1.366507,0.0,85
hougang-hougangavenue4-blk576a-deck1a,Hougang/Hougang Avenue 4/Blk 576A/Deck 1A,531576-01,SG-531576-001,Parking,"{'city': 'Singapore', 'street': '576A Hougang Avenue 4', 'country': 'SG', 'zipcode': '531576', 'building': '', 'neighborhood': ''}",SRID=4326;POINT (103.885836 1.3786),Open,35,103.885836,1.3786,0.0,79
hougang-hougangavenue6-blk524,Hougang/Hougang Avenue 6/Blk 524,530524-01,SG-530524-001,Parking,"{'city': 'Singapore', 'street': '524 Hougang Avenue 6', 'country': 'SG', 'zipcode': '530524', 'building': '', 'neighborhood': ''}",SRID=4326;POINT (103.890352 1.373931),Open,35,103.890352,1.373931,1.0,81
hougang-hougangavenue8-blk436,Hougang/Hougang Avenue 8/Blk 436,530436-01,SG-530436-001,Parking,"{'city': 'Singapore', 'street': '436 Hougang Avenue 8', 'country': 'SG', 'zipcode': '530436', 'building': '', 'neighborhood': ''}",SRID=4326;POINT (103.8939 1.377398),Open,35,103.8939,1.377398,1.0,82
hougang-hougangavenue8-blk618,Hougang/Hougang Avenue 8/Blk 618,530614-01,SG-530614-001,Parking,"{'city': 'Singapore', 'street': 'Blk 609-621 Hougang Avenue 8', 'country': 'SG', 'zipcode': '530614', 'building': '', 'neighborhood': ''}",SRID=4326;POINT (103.884244 1.369879),Open,35,103.884244,1.369879,1.0,83
hougang-hougangavenue9-blk966a-deck1a,Hougang/Hougang Avenue 9/Blk 966A/Deck 1A,531966-01,SG-531966-001,Parking,"{'city': 'Singapore', 'street': '966A Hougang Avenue 9', 'country': 'SG', 'zipcode': '531966', 'building': '', 'neighborhood': ''}",SRID=4326;POINT (103.877869 1.377891),Open,35,103.877869,1.377891,0.0,77
hougang-hougangcentral-deck2a-blk838a,Hougang/Hougang Central/Deck 2A/Blk 838A,531838-01,SG-531838-001,Parking,"{'city': 'Singapore', 'street': '838A Hougang Central', 'country': 'SG', 'zipcode': '531838', 'building': '', 'neighborhood': ''}",SRID=4326;POINT (103.891881 1.370024),Open,35,103.891881,1.370024,0.0,81
hougang-hougangstreet11-blk159a-deck1,Hougang/Hougang Street 11/Blk 159A/Deck 1,531159-01,SG-531159-001,Parking,"{'city': 'Singapore', 'street': '159A Hougang Street 11', 'country': 'SG', 'zipcode': '531159', 'building': '', 'neighborhood': ''}",SRID=4326;POINT (103.879594 1.351926),Open,35,103.879594,1.351926,0.0,154
hougang-hougangstreet21-blk205nearheartlandmall,Hougang/Hougang Street 21/Blk 205 (Near Heartland Mall),530205-01,SG-530205-001,Parking,"{'city': 'Singapore', 'street': '205 Hougang Street 21', 'country': 'SG', 'zipcode': '530205', 'building': '', 'neighborhood': ''}",SRID=4326;POINT (103.885855 1.360295),Open,35,103.885855,1.360295,1.0,84
hougang-hougangstreet31-blk373a-deckb1b,Hougang/Hougang Street 31/Blk 373A/Deck B1B,531373-01,SG-531373-001,Parking,"{'city': 'Singapore', 'street': '373A Hougang Street 31', 'country': 'SG', 'zipcode': '531373', 'building': '', 'neighborhood': ''}",SRID=4326;POINT (103.890053 1.362366),Open,35,103.890053,1.362366,1.0,85
hougang-hougangstreet32-blk376-deck2b,Hougang/Hougang Street 32/Blk 376/Deck 2B,530376-01,SG-530376-001,Parking,"{'city': 'Singapore', 'street': '376 Hougang Street 32', 'country': 'SG', 'zipcode': '530376', 'building': '', 'neighborhood': ''}",SRID=4326;POINT (103.89408 1.36371),Open,35,103.89408,1.36371,0.0,85
hougang-hougangstreet61-blk688,Hougang/Hougang Street 61/Blk 688,530685-01,SG-530685-001,Parking,"{'city': 'Singapore', 'street': 'Blk 685/691 Hougang Street 61', 'country': 'SG', 'zipcode': '530685', 'building': '', 'neighborhood': ''}",SRID=4326;POINT (103.885492 1.37595),Open,35,103.885492,1.37595,0.0,79
hougang-hougangstreet92-blk941a-deck1a,Hougang/Hougang Street 92/Blk 941A/Deck 1A,531941-01,SG-531941-001,Parking,"{'city': 'Singapore', 'street': '941A Hougang Street 92', 'country': 'SG', 'zipcode': '531941', 'building': '', 'neighborhood': ''}",SRID=4326;POINT (103.87912 1.374287),Open,35,103.87912,1.374287,0.0,79
hougang-upperserangoonroad-blk364-deck1b,Hougang/Upper Serangoon Road/Blk 364/Deck 1B,530364-01,SG-530364-001,Parking,"{'city': 'Singapore', 'street': '364 Upper Serangoon Road', 'country': 'SG', 'zipcode': '530364', 'building': '', 'neighborhood': ''}",SRID=4326;POINT (103.896745 1.370671),Open,35,103.896745,1.370671,1.0,86
jurongeast-8jurongtownhallroad-jtcsummit-deckb2,Jurong East/8 Jurong Town Hall Road/JTC Summit/Deck B2,609434-01,SG-609434-001,Parking,"{'city': 'Singapore', 'street': '8 Jurong Town Hall Road', 'country': 'SG', 'zipcode': '609434', 'building': '', 'neighborhood': ''}",SRID=4326;POINT (103.74184 1.33115),Open,36,103.74184,1.33115,1.0,87
jurongeast-jurongeastave1-blk354-deck1a,Jurong East/Jurong East Ave 1/Blk 354/Deck 1A,600354-01,SG-600354-001,Parking,"{'city': 'Singapore', 'street': '354 Jurong East Avenue 1', 'country': 'SG', 'zipcode': '600354'}",SRID=4326;POINT (103.7325 1.3447),Open,36,103.7325,1.3447,1.0,88
jurongeast-jurongeaststreet13-blk116,Jurong East/Jurong East Street 13/Blk 116,600116-01,SG-600116-001,Parking,"{'city': 'Singapore', 'street': '116 Jurong East Street 13', 'country': 'SG', 'zipcode': '600116', 'building': '', 'neighborhood': ''}",SRID=4326;POINT (103.734451 1.339583),Open,36,103.734451,1.339583,0.0,89
jurongeast-jurongeaststreet21-blk230,Jurong East/Jurong East Street 21/Blk 230,600231-01,SG-600231-001,Parking,"{'city': 'Singapore', 'street': '215-230 Jurong East Street 21', 'country': 'SG', 'zipcode': '600231', 'building': '', 'neighborhood': ''}",SRID=4326;POINT (103.737565 1.341813),Open,36,103.737565,1.341813,1.0,89
jurongeast-jurongeaststreet21-blk232,Jurong East/Jurong East Street 21/Blk 232,600232-01,SG-600232-001,Parking,"{'city': 'Singapore', 'street': '232 Jurong East Street 21', 'country': 'SG', 'zipcode': '600232', 'building': '', 'neighborhood': ''}",SRID=4326;POINT (103.741013 1.339759),Open,36,103.741013,1.339759,0.0,89
jurongeast-jurongeaststreet32-blk307,Jurong East/Jurong East Street 32/Blk 307,600307-01,SG-600307-001,Parking,"{'city': 'Singapore', 'street': '307 Jurong East Street 32', 'country': 'SG', 'zipcode': '600307', 'building': '', 'neighborhood': ''}",SRID=4326;POINT (103.734402 1.346612),Open,36,103.734402,1.346612,0.0,88
jurongeast-pandangardens-blk414,Jurong East/Pandan Gardens/Blk 414,600414-01,SG-600414-001,Parking,"{'city': 'Singapore', 'street': '414 Pandan Gardens', 'country': 'SG', 'zipcode': '600414', 'building': '', 'neighborhood': ''}",SRID=4326;POINT (103.747609 1.319852),Open,36,103.747609,1.319852,1.0,90
clementi-tebangardensroad-blk61-deck1a,Jurong East/Teban Gardens Road/Blk 61/Deck 1A,600061-01,SG-600061-001,Parking,"{'city': 'Singapore', 'street': '61 Teban Gardens Road', 'country': 'SG', 'zipcode': '600061', 'building': '', 'neighborhood': ''}",SRID=4326;POINT (103.738434 1.322132),Open,36,103.738434,1.322132,1.0,91
jurongeast-tohguanroad-blk267a-deck1a,Jurong East/Toh Guan Road/Blk 267A/Deck 1A,601267-01,SG-601267-001,Parking,"{'city': 'Singapore', 'street': '267A Toh Guan road', 'country': 'SG', 'zipcode': '601267', 'building': '', 'neighborhood': ''}",SRID=4326;POINT (103.745218 1.341566),Open,36,103.745218,1.341566,1.0,92
jurongeast-tohguanroad-blk285e-deck2a,Jurong East/Toh Guan Road/Blk 285E/Deck 2A,605285-01,SG-605285-001,Parking,"{'city': 'Singapore', 'street': '285E Toh Guan Road', 'country': 'SG', 'zipcode': '605285', 'building': '', 'neighborhood': ''}",SRID=4326;POINT (103.746921 1.337589),Open,36,103.746921,1.337589,0.0,92
jurongeast-westgate-deckb2-lobbyb,Jurong East/Westgate/Deck B2/Lobby B,608532-01,SG-608532-001,Parking,"{'city': 'Singapore', 'street': '3 Gateway Drive', 'country': 'SG', 'zipcode': '608532', 'building': '', 'neighborhood': ''}",SRID=4326;POINT (103.742856 1.33428),Open,36,103.742856,1.33428,0.0,87
jurongwest-boonlaydrive-blk188,Jurong West/Boon Lay Drive/Blk 188,640188-01,SG-640188-001,Parking,"{'city': 'Singapore', 'street': '188 Boon Lay Drive', 'country': 'SG', 'zipcode': '640188', 'building': '', 'neighborhood': ''}",SRID=4326;POINT (103.711245 1.344062),Open,45,103.711245,1.344062,1.0,93
jurongwest-boonlaydrive-blk196-deck1a,Jurong West/Boon Lay Drive/Blk 196/Deck 1A,640196-01,SG-640196-001,Parking,"{'city': 'Singapore', 'street': '196 Boon Lay Drive', 'country': 'SG', 'zipcode': '640196', 'building': '', 'neighborhood': ''}",SRID=4326;POINT (103.713707 1.342613),Open,45,103.713707,1.342613,0.0,93
jurongwest-boonlaydrive-blk268-deck1a,Jurong West/Boon Lay Drive/Blk 268/Deck 1A,640268-01,SG-640268-001,Parking,"{'city': 'Singapore', 'street': '268 Boon Lay Drive', 'country': 'SG', 'zipcode': '640268', 'building': '', 'neighborhood': ''}",SRID=4326;POINT (103.707724 1.348048),Open,45,103.707724,1.348048,1.0,94
jurongwest-jurongwestcentral3-blk697-deck1b,Jurong West/Jurong West Central 3/Blk 697/Deck 1B,640697-01,SG-640697-001,Parking,"{'city': 'Singapore', 'street': '697 Jurong West Central 3', 'country': 'SG', 'zipcode': '640697', 'building': '', 'neighborhood': ''}",SRID=4326;POINT (103.707913 1.341597),Open,45,103.707913,1.341597,0.0,93
jurongwest-jurongwestst61-blk624a-deck1a,Jurong West/Jurong West St 61/Blk 624A/Deck 1A,641624-01,SG-641624-001,Parking,"{'city': 'Singapore', 'street': '624A Jurong West Street 61', 'country': 'SG', 'zipcode': '641624'}",SRID=4326;POINT (103.698491 1.341173),Open,45,103.698491,1.341173,1.0,95
jurongwest-jurongweststreet24-blk271-deck1b,Jurong West/Jurong West Street 24/Blk 271/Deck 1B,640271-01,SG-640271-001,Parking,"{'city': 'Singapore', 'street': '271 Jurong West Street 24', 'country': 'SG', 'zipcode': '640271', 'building': '', 'neighborhood': ''}",SRID=4326;POINT (103.7040753 1.3508141),Open,45,103.7040753,1.3508141,1.0,96
jurongwest-jurongweststreet25-blk276-deck2a,Jurong West/Jurong West Street 25/Blk 276/Deck 2A,640276-01,SG-640276-001,Parking,"{'city': 'Singapore', 'street': '276 Jurong West Street 25', 'country': 'SG', 'zipcode': '640276', 'building': '', 'neighborhood': ''}",SRID=4326;POINT (103.703214 1.35377),Open,45,103.703214,1.35377,0.0,96
jurongwest-jurongweststreet64-blk684-deck1,Jurong West/Jurong West Street 64/Blk 684/Deck 1,640684-01,SG-640684-001,Parking,"{'city': 'Singapore', 'street': '684 Jurong West Street 64', 'country': 'SG', 'zipcode': '640684', 'building': '', 'neighborhood': ''}",SRID=4326;POINT (103.703856 1.344321),Open,45,103.703856,1.344321,1.0,97
jurongwest-jurongweststreet65-blk659-deck2a,Jurong West/Jurong West Street 65/Blk 659/Deck 2A,640659-01,SG-640659-001,Parking,"{'city': 'Singapore', 'street': '659 Jurong West Street 65', 'country': 'SG', 'zipcode': '640659', 'building': '', 'neighborhood': ''}",SRID=4326;POINT (103.702388 1.3373547),Open,45,103.702388,1.3373547,1.0,98
jurongwest-jurongweststreet73-blk734a-deck1b,Jurong West/Jurong West Street 73/Blk 734A/Deck 1B,641734-01,SG-641734-001,Parking,"{'city': 'Singapore', 'street': '734A Jurong West Street 73', 'country': 'SG', 'zipcode': '641734', 'building': '', 'neighborhood': ''}",SRID=4326;POINT (103.700915 1.345607),Open,45,103.700915,1.345607,0.0,97
jurongwest-jurongweststreet81-blk832a-deckbasement,Jurong West/Jurong West Street 81/Blk 832A/Deck Basement,641832-01,SG-641832-001,Parking,"{'city': 'Singapore', 'street': '832A Jurong West Street 81', 'country': 'SG', 'zipcode': '641832', 'building': '', 'neighborhood': ''}",SRID=4326;POINT (103.69462 1.344525),Open,45,103.69462,1.344525,1.0,99
jurongwest-jurongweststreet81-blk854a-deck1a,Jurong West/Jurong West Street 81/Blk 854A/Deck 1A,641854-01,SG-641854-001,Parking,"{'city': 'Singapore', 'street': '854A Jurong West Street 81', 'country': 'SG', 'zipcode': '641854', 'building': '', 'neighborhood': ''}",SRID=4326;POINT (103.696495 1.347775),Open,45,103.696495,1.347775,0.0,99
jurongwest-jurongweststreet91-blk903,Jurong West/Jurong West Street 91/Blk 903,640903-01,SG-640903-001,Parking,"{'city': 'Singapore', 'street': '903 Jurong West Street 91', 'country': 'SG', 'zipcode': '640903', 'building': '', 'neighborhood': ''}",SRID=4326;POINT (103.686256 1.339625),Open,45,103.686256,1.339625,1.0,100
jurongwest-jurongweststreet91-blk953,Jurong West/Jurong West Street 91/Blk 953,640953-01,SG-640953-001,Parking,"{'city': 'Singapore', 'street': '953 Jurong West Street 91', 'country': 'SG', 'zipcode': '640953', 'building': '', 'neighborhood': ''}",SRID=4326;POINT (103.690355 1.342364),Open,45,103.690355,1.342364,1.0,101
jurongwest-jurongweststreet93-blk986-deck1a,Jurong West/Jurong West Street 93/Blk 986/Deck 1A,640986-01,SG-640986-001,Parking,"{'city': 'Singapore', 'street': '986 Jurong West Street 93', 'country': 'SG', 'zipcode': '640986', 'building': '', 'neighborhood': ''}",SRID=4326;POINT (103.694607 1.337105),Open,45,103.694607,1.337105,1.0,102
jurongwest-kangchingroad-blk346a-deck1b,Jurong West/Kang Ching Road/Blk 346A/Deck 1B,611346-01,SG-611346-001,Parking,"{'city': 'Singapore', 'street': '346A Kang Ching Road', 'country': 'SG', 'zipcode': '611346', 'building': '', 'neighborhood': ''}",SRID=4326;POINT (103.720221 1.340133),Open,45,103.720221,1.340133,1.0,103
jurongwest-yuanchingroad-blk138-deck1a,Jurong West/Yuan Ching Road/Blk 138/Deck 1A,610138-01,SG-610138-001,Parking,"{'city': 'Singapore', 'street': '138 Yuan Ching Road', 'country': 'SG', 'zipcode': '610138', 'building': '', 'neighborhood': ''}",SRID=4326;POINT (103.723414 1.3277221),Open,45,103.723414,1.3277221,1.0,104
jurongwest-yunganroad-blk364-deck1a,Jurong West/Yung An Road/Blk 364/Deck 1A,610364-01,SG-610364-001,Parking,"{'city': 'Singapore', 'street': '364 Yung An Road', 'country': 'SG', 'zipcode': '610364', 'building': '', 'neighborhood': ''}",SRID=4326;POINT (103.720457 1.337184),Open,45,103.720457,1.337184,0.0,103
jurongwest-yungkuangrd-blk175-decka1,Jurong West/Yung Kuang Rd/Blk 175/Deck A1,611184-01,SG-611184-001,Station,"{'city': 'Singapore', 'street': '175 Yung Kuang, Yung Kuang Road', 'country': 'SG', 'zipcode': '611184'}",SRID=4326;POINT (103.7218896 1.3321898),Open,45,103.7218896,1.3321898,1.0,105
kallang-bendemeerroad-blk10-deck1a,Kallang/Bendemeer Road/Blk 10/Deck 1A,330010-01,SG-330010-001,Parking,"{'city': 'Singapore', 'street': '10 Bendemeer Road', 'country': 'SG', 'zipcode': '330010', 'building': '', 'neighborhood': ''}",SRID=4326;POINT (103.860333 1.315203),Open,46,103.860333,1.315203,1.0,106
kallang-bendemeerroad-blk39-deck1a,Kallang/Bendemeer Road/Blk 39/Deck 1A,330039-01,SG-330039-001,Parking,"{'city': 'Singapore', 'street': '39 Bendemeer Road', 'country': 'SG', 'zipcode': '330039', 'building': '', 'neighborhood': ''}",SRID=4326;POINT (103.866182 1.320808),Open,46,103.866182,1.320808,0.0,108
kallang-cambridgeroad-blk43oppositentuc,Kallang/Cambridge Road/Blk 43 (Opposite NTUC),210043-01,SG-210043-001,Parking,"{'city': 'Singapore', 'street': '43 Cambridge Road', 'country': 'SG', 'zipcode': '210043', 'building': '', 'neighborhood': ''}",SRID=4326;POINT (103.849479 1.314899),Open,46,103.849479,1.314899,0.0,107
kallang-farrerparkroad-blk14a-deck2a,Kallang/Farrer Park Road/Blk 14A/Deck 2A,211014-01,SG-211014-001,Parking,"{'city': 'Singapore', 'street': '14A Farrer Park Road', 'country': 'SG', 'zipcode': '211014', 'building': '', 'neighborhood': ''}",SRID=4326;POINT (103.85209 1.312025),Open,46,103.85209,1.312025,1.0,107
kallang-geylangbahru-blk60a-deck1a,Kallang/Geylang Bahru/Blk 60A/Deck 1A,331060-01,SG-331060-001,Parking,"{'city': 'Singapore', 'street': '60A Geylang Bahru', 'country': 'SG', 'zipcode': '331060', 'building': '', 'neighborhood': ''}",SRID=4326;POINT (103.868614 1.322882),Open,46,103.868614,1.322882,1.0,108
kallang-geylangbahru-blk73,Kallang/Geylang Bahru/Blk 73,330073-01,SG-330073-001,Parking,"{'city': 'Singapore', 'street': '73 Geylang Bahru', 'country': 'SG', 'zipcode': '330073', 'building': '', 'neighborhood': ''}",SRID=4326;POINT (103.870862 1.322514),Open,46,103.870862,1.322514,0.0,108
kallang-geylanglor3-blk114a-deck1a,Kallang/Geylang Lor 3/Blk 114A/Deck 1A,382114-01,SG-382114-001,Parking,"{'city': 'Singapore', 'street': '114A Lorong 3 Geylang', 'country': 'SG', 'zipcode': '382114', 'building': '', 'neighborhood': ''}",SRID=4326;POINT (103.8742357 1.3126427),Open,46,103.8742357,1.3126427,1.0,109
kallang-jalanrajah-blk103,Kallang/Jalan Rajah/Blk 103,321103-01,SG-321103-001,Parking,"{'city': 'Singapore', 'street': '103 Jalan Rajah', 'country': 'SG', 'zipcode': '321103', 'building': '', 'neighborhood': ''}",SRID=4326;POINT (103.852514 1.327411),Open,14,103.852514,1.327411,1.0,110
kallang-jalantenteram-blk19a-deck2a,Kallang/Jalan Tenteram/Blk 19A/Deck 2A,322019-01,SG-322019-001,Parking,"{'city': 'Singapore', 'street': '19A Jalan Tenteram', 'country': 'SG', 'zipcode': '322019', 'building': '', 'neighborhood': ''}",SRID=4326;POINT (103.859515 1.327601),Open,14,103.859515,1.327601,1.0,111
kallang-mcnairroad-blk113-deck1b,Kallang/Mcnair Road/Blk 113/Deck 1B,321113-01,SG-321113-001,Parking,"{'city': 'Singapore', 'street': '113 McNair Road', 'country': 'SG', 'zipcode': '321113', 'building': '', 'neighborhood': ''}",SRID=4326;POINT (103.859992 1.321472),Open,46,103.859992,1.321472,1.0,112
kallang-mcnairroad-blk122,Kallang/Mcnair Road/Blk 122,320122-01,SG-320122-001,Parking,"{'city': 'Singapore', 'street': '122 Mcnair Road', 'country': 'SG', 'zipcode': '320122', 'building': '', 'neighborhood': ''}",SRID=4326;POINT (103.857287 1.318764),Open,46,103.857287,1.318764,0.0,112
kallang-northbridgeroad-blk13-deck2b,Kallang/North Bridge Road/Blk 13/Deck 2B,190013-01,SG-190013-001,Parking,"{'city': 'Singapore', 'street': '13 North Bridge Road', 'country': 'SG', 'zipcode': '190013', 'building': '', 'neighborhood': ''}",SRID=4326;POINT (103.863115 1.304194),Open,46,103.863115,1.304194,0.0,57
kallang-saintgeorgeslane-blk26-deck2a,Kallang/Saint George's Lane/Blk 26/Deck 2A,320026-01,SG-320026-001,Parking,"{'city': 'Singapore', 'street': ""26 Saint George's Lane"", 'country': 'SG', 'zipcode': '320026', 'building': '', 'neighborhood': ''}",SRID=4326;POINT (103.862785 1.322084),Open,46,103.862785,1.322084,0.0,112
kallang-saintgeorgesroad-blk22,Kallang/Saint George's Road/Blk 22,321022-01,SG-321022-001,Parking,"{'city': 'Singapore', 'street': ""22 Saint George's Road"", 'country': 'SG', 'zipcode': '321022', 'building': '', 'neighborhood': ''}",SRID=4326;POINT (103.862659 1.32537),Open,46,103.862659,1.32537,0.0,111
kallang-upperboonkengroad-blk8-deck1a,Kallang/Upper Boon Keng Road/Blk 8/Deck 1A,380008-01,SG-380008-001,Parking,"{'city': 'Singapore', 'street': '8 Upper Boon Keng Road', 'country': 'SG', 'zipcode': '380008', 'building': '', 'neighborhood': ''}",SRID=4326;POINT (103.870666 1.313359),Open,46,103.870666,1.313359,0.0,109
kembangan-21jalanmasjid-besidekembanganplaza,Kembangan/21 Jalan Masjid/Beside Kembangan Plaza,418946-01,SG-418946-001,Parking,"{'city': 'Singapore', 'street': '21 Jalan Masjid', 'country': 'SG', 'zipcode': '418946', 'building': '', 'neighborhood': ''}",SRID=4326;POINT (103.912296 1.320397),Open,19,103.912296,1.320397,1.0,113
marineparade-139tembelingroad-oppositeshophouseno134,Marine Parade/139 Tembeling Road/Opposite Shophouse No.134,423648-01,SG-423648-001,Parking,"{'city': 'Singapore', 'street': '139 Tembeling Road', 'country': 'SG', 'zipcode': '423648', 'building': '', 'neighborhood': ''}",SRID=4326;POINT (103.902756 1.310655),Open,13,103.902756,1.310655,1.0,114
marineparade-across343telokkarauroad-besidestpatrickscourt,Marine Parade/Across 343 Telok Karau Road/Beside St'Patrick's Court,423870-01,SG-423870-001,Parking,"{'city': 'Singapore', 'street': 'Across 343 Telok Kurau Road', 'country': 'SG', 'zipcode': '423870', 'building': '', 'neighborhood': ''}",SRID=4326;POINT (103.912432 1.308605),Open,19,103.912432,1.308605,1.0,115
marineparade-marinecrescent-blk35a-deck2,Marine Parade/Marine Crescent/Blk 35A/Deck 2,441035-01,SG-441035-001,Parking,"{'city': 'Singapore', 'street': '35A Marine Crescent', 'country': 'SG', 'zipcode': '441035', 'building': '', 'neighborhood': ''}",SRID=4326;POINT (103.912898 1.303797),Open,39,103.912898,1.303797,1.0,116
marineparade-marinedrive-blk65a-deck1,Marine Parade/Marine Drive/Blk 65A/Deck 1,441065-01,SG-441065-001,Parking,"{'city': 'Singapore', 'street': '65A Marine Drive', 'country': 'SG', 'zipcode': '441065', 'building': '', 'neighborhood': ''}",SRID=4326;POINT (103.90992 1.302872),Open,39,103.90992,1.302872,0.0,116
marineparade-marineterrace-blk59,Marine Parade/Marine Terrace/Blk 59,440059-01,SG-440059-001,Parking,"{'city': 'Singapore', 'street': '59 Marine Terrace', 'country': 'SG', 'zipcode': '440059', 'building': '', 'neighborhood': ''}",SRID=4326;POINT (103.914158 1.305782),Open,39,103.914158,1.305782,0.0,116
novena-tantocksenghospital-basement4-nearliftlobbyd,Novena/Tan Tock Seng Hospital/Basement 4/Near Lift Lobby D,308433-01,SG-308433-001,Parking,"{'city': 'Singapore', 'street': '11 Jalan Tan Tock Seng', 'country': 'SG', 'zipcode': '308433', 'building': '', 'neighborhood': ''}",SRID=4326;POINT (103.84588 1.321282),Open,14,103.84588,1.321282,1.0,117
pasirris-pasirrisdrive10-blk736a-deck1b,Pasir Ris/Pasir Ris Drive 10/Blk 736A/Deck 1B,511736-01,SG-511736-001,Parking,"{'city': 'Singapore', 'street': '736A Pasir Ris Drive 10', 'country': 'SG', 'zipcode': '511736', 'building': '', 'neighborhood': ''}",SRID=4326;POINT (103.9374 1.37877),Open,15,103.9374,1.37877,1.0,118
pasirris-pasirrisdrive1-blk530-deck2a,Pasir Ris/Pasir Ris Drive 1/Blk 530/Deck 2A,510530-01,SG-510530-001,Parking,"{'city': 'Singapore', 'street': '530 Pasir Ris Drive 1', 'country': 'SG', 'zipcode': '510530', 'building': '', 'neighborhood': ''}",SRID=4326;POINT (103.949451 1.371297),Open,15,103.949451,1.371297,1.0,119
pasirris-pasirrisdrive3-blk631a-deck1a,Pasir Ris/Pasir Ris Drive 3/Blk 631A/Deck 1A,511631-01,SG-511631-001,Parking,"{'city': 'Singapore', 'street': '631A Pasir Ris Drive 3', 'country': 'SG', 'zipcode': '511631', 'building': '', 'neighborhood': ''}",SRID=4326;POINT (103.940215 1.379375),Open,15,103.940215,1.379375,0.0,118
pasirris-pasirrisdrive4-blk231a-deck1b,Pasir Ris/Pasir Ris Drive 4/Blk 231A/Deck 1B,511231-01,SG-511231-001,Parking,"{'city': 'Singapore', 'street': '231A Pasir Ris Drive 4', 'country': 'SG', 'zipcode': '511231', 'building': '', 'neighborhood': ''}",SRID=4326;POINT (103.961435 1.374171),Open,15,103.961435,1.374171,1.0,120
pasirris-pasirrisdrive6-blk417,Pasir Ris/Pasir Ris Drive 6/Blk 417,510417-01,SG-510417-001,Parking,"{'city': 'Singapore', 'street': '417 Pasir Ris Drive 6', 'country': 'SG', 'zipcode': '510417', 'building': '', 'neighborhood': ''}",SRID=4326;POINT (103.955033 1.372102),Open,15,103.955033,1.372102,1.0,121
pasirris-pasirrisdrive6-blk473a-deck1a,Pasir Ris/Pasir Ris Drive 6/Blk 473A/Deck 1A,511473-01,SG-511473-001,Parking,"{'city': 'Singapore', 'street': '473A Pasir Ris Drive 6', 'country': 'SG', 'zipcode': '511473', 'building': '', 'neighborhood': ''}",SRID=4326;POINT (103.956593 1.374253),Open,15,103.956593,1.374253,0.0,121
pasirris-pasirrisst72-blk718a-deck1b,Pasir Ris/Pasir Ris St 72/Blk 718A/Deck 1B,511718-01,SG-511718-001,Parking,"{'city': 'Singapore', 'street': '718A Pasir Ris Street 72', 'country': 'SG', 'zipcode': '511718'}",SRID=4326;POINT (103.936034 1.381854),Open,15,103.936034,1.381854,0.0,118
pasirris-pasirrisstreet11-blk142a-deck2a,Pasir Ris/Pasir Ris Street 11/Blk 142A/Deck 2A,511142-01,SG-511142-001,Parking,"{'city': 'Singapore', 'street': '142A Pasir Ris Street 11', 'country': 'SG', 'zipcode': '511142', 'building': '', 'neighborhood': ''}",SRID=4326;POINT (103.959842 1.362877),Open,15,103.959842,1.362877,0.0,122
pasirris-pasirrisstreet12-blk108a-deck1a,Pasir Ris/Pasir Ris Street 12/Blk 108A/Deck 1A,511108-01,SG-511108-001,Parking,"{'city': 'Singapore', 'street': '108A Pasir Ris Street 12', 'country': 'SG', 'zipcode': '511108', 'building': '', 'neighborhood': ''}",SRID=4326;POINT (103.956949 1.367987),Open,15,103.956949,1.367987,0.0,122
pasirris-pasirrisstreet12-blk199a-deck1b,Pasir Ris/Pasir Ris Street 12/Blk 199A/Deck 1B,511199-01,SG-511199-001,Parking,"{'city': 'Singapore', 'street': '199A Pasir Ris Street 12', 'country': 'SG', 'zipcode': '511199', 'building': '', 'neighborhood': ''}",SRID=4326;POINT (103.959538 1.366493),Open,15,103.959538,1.366493,1.0,122
pasirris-pasirrisstreet21-blk245a-deck2a,Pasir Ris/Pasir Ris Street 21/Blk 245A/Deck 2A,511245-01,SG-511245-001,Parking,"{'city': 'Singapore', 'street': '245A Pasir Ris Street 21', 'country': 'SG', 'zipcode': '511245', 'building': '', 'neighborhood': ''}",SRID=4326;POINT (103.963417 1.370911),Open,15,103.963417,1.370911,0.0,120
pasirris-pasirrisstreet21-blk257a-deck1b,Pasir Ris/Pasir Ris Street 21/Blk 257A/Deck 1B,511257-01,SG-511257-001,Parking,"{'city': 'Singapore', 'street': '257A Pasir Ris Street 21', 'country': 'SG', 'zipcode': '511257', 'building': '', 'neighborhood': ''}",SRID=4326;POINT (103.963248 1.367569),Open,15,103.963248,1.367569,0.0,122
pasirris-pasirrisstreet51-blk526-deck1b,Pasir Ris/Pasir Ris Street 51/Blk 526/Deck 1B,510526-01,SG-510526-001,Parking,"{'city': 'Singapore', 'street': '526 Pasir Ris Street 51', 'country': 'SG', 'zipcode': '510526', 'building': '', 'neighborhood': ''}",SRID=4326;POINT (103.9474 1.367774),Open,15,103.9474,1.367774,0.0,119
pasirris-pasirrisstreet71-blk747a-deck2a,Pasir Ris/Pasir Ris Street 71/Blk 747A/Deck 2A,511747-01,SG-511747-001,Parking,"{'city': 'Singapore', 'street': '747A Pasir Ris Street 71', 'country': 'SG', 'zipcode': '511747', 'building': '', 'neighborhood': ''}",SRID=4326;POINT (103.934078 1.378748),Open,15,103.934078,1.378748,1.0,123
pasirris-pasirrisstreet71-blk762a-deck1a,Pasir Ris/Pasir Ris Street 71/Blk 762A/Deck 1A,511762-01,SG-511762-001,Parking,"{'city': 'Singapore', 'street': '762A Pasir Ris Street 71', 'country': 'SG', 'zipcode': '511762', 'building': '', 'neighborhood': ''}",SRID=4326;POINT (103.9333 1.376083),Open,15,103.9333,1.376083,0.0,123
pasirris-pasirrisstreet71-blk773a-deck2b,Pasir Ris/Pasir Ris Street 71/Blk 773A/Deck 2B,511773-01,SG-511773-001,Parking,"{'city': 'Singapore', 'street': '773A Pasir Ris Street 71', 'country': 'SG', 'zipcode': '511773', 'building': '', 'neighborhood': ''}",SRID=4326;POINT (103.935842 1.374638),Open,15,103.935842,1.374638,0.0,118
punggol-edgedaleplains-blk172-deck1a,Punggol/Edgedale Plains/Blk 172/Deck 1A,820172-01,SG-820172-001,Parking,"{'city': 'Singapore', 'street': '172 Edgedale Plains', 'country': 'SG', 'zipcode': '820172', 'building': '', 'neighborhood': ''}",SRID=4326;POINT (103.911788 1.39557),Open,41,103.911788,1.39557,0.0,125
punggol-edgedaleplains-blk682-deck1a,Punggol/Edgedale Plains/Blk 682/Deck 1A,820682-01,SG-820682-001,Parking,"{'city': 'Singapore', 'street': '682 Edgedale Plains', 'country': 'SG', 'zipcode': '820682', 'building': '', 'neighborhood': ''}",SRID=4326;POINT (103.915844 1.403941),Open,41,103.915844,1.403941,0.0,124
punggol-edgefieldplains-blk119-deck1a,Punggol/Edgefield Plains/Blk 119/Deck 1A,820119-01,SG-820119-001,Parking,"{'city': 'Singapore', 'street': '119 Edgefield Plains', 'country': 'SG', 'zipcode': '820119', 'building': '', 'neighborhood': ''}",SRID=4326;POINT (103.906424 1.395461),Open,41,103.906424,1.395461,0.0,126
punggol-edgefieldplains-blk670-deck2b,Punggol/Edgefield Plains/Blk 670/Deck 2B,820670-01,SG-820670-001,Parking,"{'city': 'Singapore', 'street': '670 Edgefield Plains', 'country': 'SG', 'zipcode': '820670', 'building': '', 'neighborhood': ''}",SRID=4326;POINT (103.913198 1.405832),Open,41,103.913198,1.405832,1.0,124
punggol-punggolcentral-blk166-deck1a,Punggol/Punggol Central/Blk 166/Deck 1A,820166-01,SG-820166-001,Parking,"{'city': 'Singapore', 'street': '166 Punggol Central', 'country': 'SG', 'zipcode': '820166', 'building': '', 'neighborhood': ''}",SRID=4326;POINT (103.914993 1.394883),Open,41,103.914993,1.394883,0.0,125
punggol-punggolcentral-blk301-deck2b,Punggol/Punggol Central/Blk 301/Deck 2B,820301-01,SG-820301-001,Parking,"{'city': 'Singapore', 'street': '301 Punggol Central', 'country': 'SG', 'zipcode': '820301', 'building': '', 'neighborhood': ''}",SRID=4326;POINT (103.906146 1.403648),Open,41,103.906146,1.403648,0.0,127
punggol-punggolcentral-blk650-deck1,Punggol/Punggol Central/Blk 650/Deck 1,820650-01,SG-820650-001,Parking,"{'city': 'Singapore', 'street': '650 Punggol Central', 'country': 'SG', 'zipcode': '820650', 'building': '', 'neighborhood': ''}",SRID=4326;POINT (103.9151 1.39716),Open,41,103.9151,1.39716,1.0,125
punggol-punggoldrive-blk663-deck1b,Punggol/Punggol Drive/Blk 663/Deck 1B,820663-01,SG-820663-001,Parking,"{'city': 'Singapore', 'street': '663 Punggol Drive', 'country': 'SG', 'zipcode': '820663', 'building': '', 'neighborhood': ''}",SRID=4326;POINT (103.916743 1.399895),Open,41,103.916743,1.399895,0.0,125
punggol-punggoldrive-blk676-deck2,Punggol/Punggol Drive/Blk 676/Deck 2,820676-01,SG-820676-001,Parking,"{'city': 'Singapore', 'street': '676 Punggol Drive', 'country': 'SG', 'zipcode': '820676', 'building': '', 'neighborhood': ''}",SRID=4326;POINT (103.91019 1.405261),Open,41,103.91019,1.405261,0.0,124
punggol-punggolfield-blk175-deck1b,Punggol/Punggol Field/Blk 175/Deck 1B,820175-01,SG-820175-001,Parking,"{'city': 'Singapore', 'street': '175 Punggol Field', 'country': 'SG', 'zipcode': '820175', 'building': '', 'neighborhood': ''}",SRID=4326;POINT (103.908213 1.398065),Open,41,103.908213,1.398065,1.0,126
punggol-punggolfield-blk199-deck1a,Punggol/Punggol Field/Blk 199/Deck 1A,820199-01,SG-820199-001,Parking,"{'city': 'Singapore', 'street': '199 Punggol Field', 'country': 'SG', 'zipcode': '820199'}",SRID=4326;POINT (103.905715 1.400142),Open,41,103.905715,1.400142,0.0,126
punggol-punggolfield-blk204-deckb1,Punggol/Punggol Field/Blk 204/Deck B1,820204-01,SG-820204-001,Parking,"{'city': 'Singapore', 'street': '204 Punggol Field', 'country': 'SG', 'zipcode': '820204', 'building': '', 'neighborhood': ''}",SRID=4326;POINT (103.90305 1.398494),Open,41,103.90305,1.398494,0.0,127
punggol-punggolfieldwalk-blk128-deck1b,Punggol/Punggol Field Walk/Blk 128/Deck 1B,820128-02,SG-820128-002,Parking,"{'city': 'Singapore', 'street': '128 Punggol Field  Walk', 'country': 'SG', 'zipcode': '820128'}",SRID=4326;POINT (103.913409 1.393079),Open,41,103.913409,1.393079,0.0,125
punggol-punggolplace-blk273-deck1,Punggol/Punggol Place/Blk 273/Deck 1,820273-01,SG-820273-001,Parking,"{'city': 'Singapore', 'street': '273 Punggol Place', 'country': 'SG', 'zipcode': '820273', 'building': '', 'neighborhood': ''}",SRID=4326;POINT (103.901963 1.402703),Open,41,103.901963,1.402703,1.0,127
punggol-punggolwalk-blk213-deck1a,Punggol/Punggol Walk/Blk 213/Deck 1A,820213-01,SG-820213-001,Parking,"{'city': 'Singapore', 'street': '213 Punggol Walk', 'country': 'SG', 'zipcode': '820213', 'building': '', 'neighborhood': ''}",SRID=4326;POINT (103.898428 1.400134),Open,41,103.898428,1.400134,0.0,127
punggol-punggolway-blk261-deck2b,Punggol/Punggol Way/Blk 261/Deck 2B,820261-01,SG-820261-001,Parking,"{'city': 'Singapore', 'street': '261 Punggol Way', 'country': 'SG', 'zipcode': '820261', 'building': '', 'neighborhood': ''}",SRID=4326;POINT (103.896933 1.40541),Open,41,103.896933,1.40541,1.0,128
punggol-sumanglane-blk233-deck1,Punggol/Sumang Lane/Blk 233/Deck 1,820233-01,SG-820233-001,Parking,"{'city': 'Singapore', 'street': '233 Sumang Lane', 'country': 'SG', 'zipcode': '820233', 'building': '', 'neighborhood': ''}",SRID=4326;POINT (103.891288 1.401304),Open,41,103.891288,1.401304,1.0,129
buonavista-11biopolisway-helios-deckb2,Queenstown/11 Biopolis Way/Helios/Deck B2,138667-01,SG-138667-001,Parking,"{'city': 'Singapore', 'street': '11 Biopolis Way', 'country': 'SG', 'zipcode': '138667', 'building': '', 'neighborhood': ''}",SRID=4326;POINT (103.791778 1.304152),Open,42,103.791778,1.304152,1.0,130
queenstown-commonwealthavenue-blk7b-deck1b,Queenstown/Commonwealth Avenue/Blk 7B/Deck 1B,142007-01,SG-142007-001,Parking,"{'city': 'Singapore', 'street': '7B Commonwealth Avenue', 'country': 'SG', 'zipcode': '142007', 'building': '', 'neighborhood': ''}",SRID=4326;POINT (103.79504 1.306364),Open,42,103.79504,1.306364,0.0,135
queenstown-commonwealthdrive-blk117besideblk117openspacecarpark,Queenstown/Commonwealth Drive/Blk 117 (Beside Blk 117 Open Space Carpark),140117-01,SG-140117-001,Parking,"{'city': 'Singapore', 'street': '117 Commonwealth Drive', 'country': 'SG', 'zipcode': '140117', 'building': '', 'neighborhood': ''}",SRID=4326;POINT (103.799566 1.306972),Open,42,103.799566,1.306972,0.0,135
queenstown-commonwealthdrive-blk54-deck1b,Queenstown/Commonwealth Drive/Blk 54/Deck 1B,142054-01,SG-142054-001,Parking,"{'city': 'Singapore', 'street': '54 Commonwealth drive', 'country': 'SG', 'zipcode': '142054', 'building': '', 'neighborhood': ''}",SRID=4326;POINT (103.796861 1.301726),Open,42,103.796861,1.301726,1.0,131
queenstown-dovercrescent-blk19a-deck1a,Queenstown/Dover Crescent/Blk 19A/Deck 1A,131019-01,SG-131019-001,Parking,"{'city': 'Singapore', 'street': '19A Dover Crescent', 'country': 'SG', 'zipcode': '131019', 'building': '', 'neighborhood': ''}",SRID=4326;POINT (103.784616 1.307398),Open,42,103.784616,1.307398,1.0,132
queenstown-dovercrescent-blk28-deck2b,Queenstown/Dover Crescent/Blk 28/Deck 2B,130028-01,SG-130028-001,Parking,"{'city': 'Singapore', 'street': '28 Dover Crescent', 'country': 'SG', 'zipcode': '130028', 'building': '', 'neighborhood': ''}",SRID=4326;POINT (103.781822 1.304624),Open,42,103.781822,1.304624,0.0,132
queenstown-fusionopolispl-1-deckb4,Queenstown/Fusionopolis Pl/1/Deck B4,138632-01,SG-138632-001,Parking,"{'city': 'Singapore', 'street': '1 Fusionopolis Place', 'country': 'SG', 'zipcode': '138632', 'building': '', 'neighborhood': ''}",SRID=4326;POINT (103.78748 1.29866),Open,42,103.78748,1.29866,1.0,133
queenstown-ghimmohlink-blk24-deck1b,Queenstown/Ghim Moh Link/Blk 24/Deck 1B,270024-01,SG-270024-001,Parking,"{'city': 'Singapore', 'street': '24 Ghim Moh Link', 'country': 'SG', 'zipcode': '270024', 'building': '', 'neighborhood': ''}",SRID=4326;POINT (103.785607 1.308908),Open,42,103.785607,1.308908,1.0,134
queenstown-ghimmohroad-blk2a-deck1,Queenstown/Ghim Moh Road/Blk 2A/Deck 1,272002-01,SG-272002-001,Parking,"{'city': 'Singapore', 'street': '2A Ghim Moh Road', 'country': 'SG', 'zipcode': '272002', 'building': '', 'neighborhood': ''}",SRID=4326;POINT (103.787393 1.312774),Open,42,103.787393,1.312774,0.0,134
queenstown-hollandclose-blk5a-deck3a,Queenstown/Holland Close/Blk 5A/Deck 3A,271005-01,SG-271005-001,Parking,"{'city': 'Singapore', 'street': '5A Holland Close', 'country': 'SG', 'zipcode': '271005', 'building': '', 'neighborhood': ''}",SRID=4326;POINT (103.796213 1.308861),Open,42,103.796213,1.308861,1.0,135
queenstown-hollanddr-blk18-deck1a,Queenstown/Holland Dr/Blk 18/Deck 1A,271018-01,SG-271018-001,Parking,"{'city': 'Singapore', 'street': '18 Holland Drive', 'country': 'SG', 'zipcode': '271018'}",SRID=4326;POINT (103.79207 1.3118),Open,42,103.79207,1.3118,1.0,136
central-jalanmerahsaga-44,Queenstown/Jalan Merah Saga/44,278116-01,SG-278116-001,Station,"{'city': 'Singapore', 'street': '44 Jalan Merah Saga', 'country': 'SG', 'zipcode': '278116', 'building': '', 'neighborhood': ''}",SRID=4326;POINT (103.79699 1.31187),Open,8,103.79699,1.31187,0.0,135
queenstown-meilingstreet-blk161a-deck1a,Queenstown/Mei Ling Street/Blk 161A/Deck 1A,141161-01,SG-141161-001,Parking,"{'city': 'Singapore', 'street': '161A Mei Ling Street', 'country': 'SG', 'zipcode': '141161', 'building': '', 'neighborhood': ''}",SRID=4326;POINT (103.80346 1.292196),Open,42,103.80346,1.292196,1.0,137
queenstown-scienceparkdr-16-level2,Queenstown/Science Park Dr/16/Level 2,118227-01,SG-118227-001,Exhibition,"{'city': 'Singapore', 'street': '16, Science Park Dr', 'country': 'SG', 'zipcode': '118227'}",SRID=4326;POINT (103.787317 1.290681),Open,42,103.787317,1.290681,1.0,138
queenstown-scienceparkdr-dnvgl-lobby,Queenstown/Science Park Dr/DNV GL/Lobby,118227-02,SG-118227-002,Station,"{'city': 'Singapore', 'street': '16, Science Park Dr', 'country': 'SG', 'zipcode': '118227'}",SRID=4326;POINT (103.786895751953 1.29014253616333),Open,42,103.7868958,1.290142536,0.0,138
queenstown-stirlingroad-blk171a-deck1,Queenstown/Stirling Road/Blk 171A/Deck 1,141171-01,SG-141171-001,Parking,"{'city': 'Singapore', 'street': '171A Stirling Road', 'country': 'SG', 'zipcode': '141171', 'building': '', 'neighborhood': ''}",SRID=4326;POINT (103.803701 1.290027),Open,42,103.803701,1.290027,0.0,137
queenstown-strathmoreavenue-blk56a-deck1b,Queenstown/Strathmore Avenue/Blk 56A/Deck 1B,143056-01,SG-143056-001,Parking,"{'city': 'Singapore', 'street': '56A Strathmore Avenue', 'country': 'SG', 'zipcode': '143056', 'building': '', 'neighborhood': ''}",SRID=4326;POINT (103.809891 1.292857),Open,42,103.809891,1.292857,0.0,33
sembawang-admiraltydr-blk358a-deck1a,Sembawang/Admiralty Dr/Blk 358A/Deck 1A,751358-01,SG-751358-001,Parking,"{'city': 'Singapore', 'street': '358A Admiralty Drive', 'country': 'SG', 'zipcode': '751358'}",SRID=4326;POINT (103.81607 1.44891),Open,18,103.81607,1.44891,0.0,141
sembawang-canberracrescent-blk117-deck2b,Sembawang/Canberra Crescent/Blk 117/Deck 2B,750117-01,SG-750117-001,Parking,"{'city': 'Singapore', 'street': '117 Canberra Crescent', 'country': 'SG', 'zipcode': '750117', 'building': '', 'neighborhood': ''}",SRID=4326;POINT (103.8299 1.445044),Open,18,103.8299,1.445044,1.0,139
sembawang-canberraroad-blk306a-deck1,Sembawang/Canberra Road/Blk 306A/Deck 1,751306-01,SG-751306-001,Parking,"{'city': 'Singapore', 'street': '306A Canberra Road', 'country': 'SG', 'zipcode': '751306', 'building': '', 'neighborhood': ''}",SRID=4326;POINT (103.822578 1.445376),Open,18,103.822578,1.445376,0.0,141
sembawang-montrealdrive-blk504-deck1a,Sembawang/Montreal Drive/Blk 504/Deck 1A,750504-01,SG-750504-001,Parking,"{'city': 'Singapore', 'street': '504 Montreal Drive', 'country': 'SG', 'zipcode': '750504', 'building': '', 'neighborhood': ''}",SRID=4326;POINT (103.824006 1.450844),Open,18,103.824006,1.450844,1.0,140
sembawang-sembawangclose-blk322a-deck3a,Sembawang/Sembawang Close/Blk 322A/Deck 3A,751322-01,SG-751322-001,Parking,"{'city': 'Singapore', 'street': '322A Sembawang Close', 'country': 'SG', 'zipcode': '751322', 'building': '', 'neighborhood': ''}",SRID=4326;POINT (103.818248 1.446177),Open,18,103.818248,1.446177,1.0,141
sembawang-sembawangcrescent-blk336a-deck2b,Sembawang/Sembawang Crescent/Blk 336A/Deck 2B,751336-01,SG-751336-001,Parking,"{'city': 'Singapore', 'street': '336A Sembawang Crescent', 'country': 'SG', 'zipcode': '751336', 'building': '', 'neighborhood': ''}",SRID=4326;POINT (103.815026 1.446371),Open,18,103.815026,1.446371,0.0,141
sembawang-sembawangcrescent-blk365-deck2b,Sembawang/Sembawang Crescent/Blk 365/Deck 2B,750365-01,SG-750365-001,Parking,"{'city': 'Singapore', 'street': '365 Sembawang Crescent', 'country': 'SG', 'zipcode': '750365', 'building': '', 'neighborhood': ''}",SRID=4326;POINT (103.816083 1.444464),Open,18,103.816083,1.444464,0.0,141
sembawang-sembawangdrive-blk406a-deck1a,Sembawang/Sembawang Drive/Blk 406A/Deck 1A,751406-01,SG-751406-001,Parking,"{'city': 'Singapore', 'street': '406A Sembawang Drive', 'country': 'SG', 'zipcode': '751406', 'building': '', 'neighborhood': ''}",SRID=4326;POINT (103.817493 1.452323),Open,18,103.817493,1.452323,1.0,142
sembawang-sembawangdrive-blk463-deck2a,Sembawang/Sembawang Drive/Blk 463/Deck 2A,750463-01,SG-750463-001,Parking,"{'city': 'Singapore', 'street': '463 Sembawang Drive', 'country': 'SG', 'zipcode': '750463', 'building': '', 'neighborhood': ''}",SRID=4326;POINT (103.814685 1.455575),Open,18,103.814685,1.455575,0.0,142
sembawang-wellingtoncircle-blk508-deck1b,Sembawang/Wellington Circle/Blk 508/Deck 1B,750508-01,SG-750508-001,Parking,"{'city': 'Singapore', 'street': '508 Wellington circle', 'country': 'SG', 'zipcode': '750508', 'building': '', 'neighborhood': ''}",SRID=4326;POINT (103.81986 1.452938),Open,18,103.81986,1.452938,0.0,142
sengkang-anchorvaledrive-blk319-deck2a,Sengkang/Anchorvale Drive/Blk 319/Deck 2A,540319-01,SG-540319-001,Parking,"{'city': 'Singapore', 'street': '319 Anchorvale Drive', 'country': 'SG', 'zipcode': '540319', 'building': '', 'neighborhood': ''}",SRID=4326;POINT (103.890279 1.390657),Open,21,103.890279,1.390657,1.0,143
sengkang-anchorvaleroad-blk308-deck2b,Sengkang/Anchorvale Road/Blk 308/Deck 2B,540308-01,SG-540308-001,Parking,"{'city': 'Singapore', 'street': '308 Anchorvale Road', 'country': 'SG', 'zipcode': '540308', 'building': '', 'neighborhood': ''}",SRID=4326;POINT (103.886397 1.389624),Open,21,103.886397,1.389624,0.0,143
sengkang-anchorvalestreet-blk329-deck1a,Sengkang/Anchorvale Street/Blk 329/Deck 1A,540329-01,SG-540329-001,Parking,"{'city': 'Singapore', 'street': '329 Anchorvale Street', 'country': 'SG', 'zipcode': '540329', 'building': '', 'neighborhood': ''}",SRID=4326;POINT (103.889296 1.39634),Open,21,103.889296,1.39634,0.0,150
sengkang-compassvalecrescent-blk293-deck2a,Sengkang/Compassvale Crescent/Blk 293/Deck 2A,540293-01,SG-540293-001,Parking,"{'city': 'Singapore', 'street': '293 Compassvale Crescent', 'country': 'SG', 'zipcode': '540293', 'building': '', 'neighborhood': ''}",SRID=4326;POINT (103.895316 1.396379),Open,21,103.895316,1.396379,0.0,150
sengkang-compassvalecrescent-blk295-deck1a,Sengkang/Compassvale Crescent/Blk 295/Deck 1A,540295-01,SG-540295-001,Parking,"{'city': 'Singapore', 'street': '295 Compassvale Crescent', 'country': 'SG', 'zipcode': '540295', 'building': '', 'neighborhood': ''}",SRID=4326;POINT (103.898795 1.397646),Open,21,103.898795,1.397646,0.0,145
sengkang-compassvalelink-blk267-deck1a,Sengkang/Compassvale Link/Blk 267/Deck 1A,540267-01,SG-540267-001,Parking,"{'city': 'Singapore', 'street': '267 Compassvale Link', 'country': 'SG', 'zipcode': '540267', 'building': '', 'neighborhood': ''}",SRID=4326;POINT (103.897028 1.383762),Open,21,103.897028,1.383762,1.0,144
sengkang-compassvaleroad-blk203-deck1a,Sengkang/Compassvale Road/Blk 203/Deck 1A,540203-01,SG-540203-001,Parking,"{'city': 'Singapore', 'street': '203 Compassvale Road', 'country': 'SG', 'zipcode': '540203', 'building': '', 'neighborhood': ''}",SRID=4326;POINT (103.895393 1.387328),Open,21,103.895393,1.387328,0.0,144
sengkang-compassvaleroad-blk256a-deck1b,Sengkang/Compassvale Road/Blk 256A/Deck 1B,541256-01,SG-541256-001,Parking,"{'city': 'Singapore', 'street': '256A Compassvale Road', 'country': 'SG', 'zipcode': '541256', 'building': '', 'neighborhood': ''}",SRID=4326;POINT (103.899491 1.393647),Open,21,103.899491,1.393647,1.0,145
sengkang-compassvalewalk-blk236a-deck1b,Sengkang/Compassvale Walk/Blk 236A/Deck 1B,541236-01,SG-541236-001,Parking,"{'city': 'Singapore', 'street': '236A Compassvale Walk', 'country': 'SG', 'zipcode': '541236', 'building': '', 'neighborhood': ''}",SRID=4326;POINT (103.900021 1.390343),Open,21,103.900021,1.390343,0.0,145
sengkang-fernvalelink-blk414-deck1,Sengkang/Fernvale Link/Blk 414/Deck 1,790414-01,SG-790414-001,Parking,"{'city': 'Singapore', 'street': '414 Fernvale Link', 'country': 'SG', 'zipcode': '790414', 'building': '', 'neighborhood': ''}",SRID=4326;POINT (103.8803 1.390411),Open,21,103.8803,1.390411,1.0,146
sengkang-fernvalelink-blk468-deck2a,Sengkang/Fernvale Link/Blk 468/Deck 2A,790468-01,SG-790468-001,Parking,"{'city': 'Singapore', 'street': '468 Fernvale Link', 'country': 'SG', 'zipcode': '790468', 'building': '', 'neighborhood': ''}",SRID=4326;POINT (103.878221 1.39663),Open,21,103.878221,1.39663,1.0,147
sengkang-fernvalerd-blk453a-deck1a,Sengkang/Fernvale Rd/Blk 453A/Deck 1A,790453-01,SG-790453-001,Parking,"{'city': 'Singapore', 'street': '453 Fernvale Road', 'country': 'SG', 'zipcode': '790453'}",SRID=4326;POINT (103.87528 1.393954),Open,21,103.87528,1.393954,0.0,147
sengkang-fernvalestreet-blk472-deck1a,Sengkang/Fernvale Street/Blk 472/Deck 1A,790472-01,SG-790472-001,Parking,"{'city': 'Singapore', 'street': '472 Fernvale Street', 'country': 'SG', 'zipcode': '790472', 'building': '', 'neighborhood': ''}",SRID=4326;POINT (103.881727 1.396952),Open,21,103.881727,1.396952,0.0,147
sengkang-rivervalecrescent-blk146a-deck1b,Sengkang/Rivervale Crescent/Blk 146A/Deck 1B,541146-01,SG-541146-001,Parking,"{'city': 'Singapore', 'street': '146A Rivervale Crescent', 'country': 'SG', 'zipcode': '541146', 'building': '', 'neighborhood': ''}",SRID=4326;POINT (103.9061507 1.3903867),Open,21,103.9061507,1.3903867,1.0,148
sengkang-rivervalecrescent-blk160-deck1,Sengkang/Rivervale Crescent/Blk 160/Deck 1,540160-01,SG-540160-001,Parking,"{'city': 'Singapore', 'street': '160 Rivervale Crescent', 'country': 'SG', 'zipcode': '540160', 'building': '', 'neighborhood': ''}",SRID=4326;POINT (103.90765 1.387305),Open,21,103.90765,1.387305,0.0,148
sengkang-rivervalecrescent-blk184-deck1b,Sengkang/Rivervale Crescent/Blk 184/Deck 1B,540184-01,SG-540184-001,Parking,"{'city': 'Singapore', 'street': '184 Rivervale Crescent', 'country': 'SG', 'zipcode': '540184', 'building': '', 'neighborhood': ''}",SRID=4326;POINT (103.908205 1.39209),Open,21,103.908205,1.39209,0.0,148
sengkang-rivervaledrive-blk117d-deck1b,Sengkang/Rivervale Drive/Blk 117D/Deck 1B,544117-01,SG-544117-001,Parking,"{'city': 'Singapore', 'street': '117D Rivervale Drive', 'country': 'SG', 'zipcode': '544117', 'building': '', 'neighborhood': ''}",SRID=4326;POINT (103.90311 1.382819),Open,21,103.90311,1.382819,1.0,149
sengkang-rivervaledrive-blk124d-deck1a,Sengkang/Rivervale Drive/Blk 124D/Deck 1A,544124-01,SG-544124-001,Parking,"{'city': 'Singapore', 'street': '124D Rivervale drive', 'country': 'SG', 'zipcode': '544124', 'building': '', 'neighborhood': ''}",SRID=4326;POINT (103.902722 1.387552),Open,21,103.902722,1.387552,0.0,148
sengkang-rivervaledrive-blk190c-deck1b,Sengkang/Rivervale Drive/Blk 190C/Deck 1B,543190-01,SG-543190-001,Parking,"{'city': 'Singapore', 'street': '190C Rivervale drive', 'country': 'SG', 'zipcode': '543190', 'building': '', 'neighborhood': ''}",SRID=4326;POINT (103.902436 1.39479),Open,21,103.902436,1.39479,0.0,145
sengkang-rivervalewalk-blk102a-deck2a,Sengkang/Rivervale Walk/Blk 102A/Deck 2A,541102-01,SG-541102-001,Parking,"{'city': 'Singapore', 'street': '102A Rivervale Walk', 'country': 'SG', 'zipcode': '541102', 'building': '', 'neighborhood': ''}",SRID=4326;POINT (103.900006 1.382212),Open,21,103.900006,1.382212,0.0,149
sengkang-sengkangeastroad-blk201-deck1b,Sengkang/Sengkang East Road/Blk 201/Deck 1B,540201-01,SG-540201-001,Parking,"{'city': 'Singapore', 'street': '201 Sengkang East Road', 'country': 'SG', 'zipcode': '540201', 'building': '', 'neighborhood': ''}",SRID=4326;POINT (103.892373 1.388419),Open,21,103.892373,1.388419,0.0,143
sengkang-sengkangeastway-blk323-deck1a,Sengkang/Sengkang East Way/Blk 323/Deck 1A,543323-01,SG-543323-001,Parking,"{'city': 'Singapore', 'street': '323 Sengkang East Way', 'country': 'SG', 'zipcode': '543323'}",SRID=4326;POINT (103.89251 1.39333),Open,21,103.89251,1.39333,1.0,150
sengkang-sengkangwestavenue-blk439-deck2a,Sengkang/Sengkang West Avenue/Blk 439/Deck 2A,790439-01,SG-790439-001,Parking,"{'city': 'Singapore', 'street': '439 Sengkang West Avenue', 'country': 'SG', 'zipcode': '790439', 'building': '', 'neighborhood': ''}",SRID=4326;POINT (103.87758 1.392184),Open,21,103.87758,1.392184,0.0,146
sentosa-1coveavenue-sentosacove-blkb-level2,Sentosa/1 Cove Avenue/Sentosa Cove/Blk B/Level 2,098537-01,SG-098537-001,Parking,"{'city': 'Singapore', 'street': '1 Cove Avenue, Sentosa Cove', 'country': 'SG', 'zipcode': '098537', 'building': '', 'neighborhood': ''}",SRID=4326;POINT (103.840256 1.247741),Open,43,103.840256,1.247741,1.0,151
sentosa-50beachview-basement-beachstationnearbeachstationescalator,Sentosa/50 Beach View/Basement/Beach Station(Near Beach Station Escalator),098604-01,SG-098604-001,Parking,"{'city': 'Singapore', 'street': '50 Beach View', 'country': 'SG', 'zipcode': '098604', 'building': '', 'neighborhood': ''}",SRID=4326;POINT (103.819188 1.251171),Open,43,103.819188,1.251171,1.0,152
sentosa-8sentosagateway-resortworldsentosa-oppositetaxistandb1towardswestcarpark,Sentosa/8 Sentosa Gateway/Resort World Sentosa/Opposite Taxi Stand @ B1 towards West carpark,098269-01,SG-098269-001,Parking,"{'city': 'Singapore', 'street': '8 Sentosa Gateway', 'country': 'SG', 'zipcode': '098269', 'building': '', 'neighborhood': ''}",SRID=4326;POINT (103.825533 1.254335),Open,43,103.825533,1.254335,1.0,153
serangoon-lorongliewlian-blk2a-deck2a,Serangoon/Lorong Liew Lian/Blk 2A/Deck 2A,532002-01,SG-532002-001,Parking,"{'city': 'Singapore', 'street': '2A Lorong Liew Lian', 'country': 'SG', 'zipcode': '532002'}",SRID=4326;POINT (103.875774 1.34985),Open,22,103.875774,1.34985,1.0,154
serangoon-serangoonave2-blk238a-deck2a,Serangoon/Serangoon Ave 2/Blk 238A/Deck 2A,551238-01,SG-551238-001,Parking,"{'city': 'Singapore', 'street': '238A Serangoon Avenue 2', 'country': 'SG', 'zipcode': '551238', 'building': '', 'neighborhood': ''}",SRID=4326;POINT (103.868894 1.354025),Open,22,103.868894,1.354025,1.0,155
serangoon-serangoonavenue4-blk212,Serangoon/Serangoon Avenue 4/Blk 212,550212-01,SG-550212-001,Parking,"{'city': 'Singapore', 'street': '212 Serangoon Avenue 4', 'country': 'SG', 'zipcode': '550212', 'building': '', 'neighborhood': ''}",SRID=4326;POINT (103.873229 1.356934),Open,22,103.873229,1.356934,1.0,156
serangoon-serangooncentral-blk264-deck2,Serangoon/Serangoon Central/Blk 264/Deck 2,550264-01,SG-550264-001,Parking,"{'city': 'Singapore', 'street': '264 Serangoon Central', 'country': 'SG', 'zipcode': '550264', 'building': '', 'neighborhood': ''}",SRID=4326;POINT (103.872152 1.352005),Open,22,103.872152,1.352005,0.0,155
serangoon-serangooncentral-blk410a-deck3a,Serangoon/Serangoon Central/Blk 410A/Deck 3A,551410-01,SG-551410-001,Parking,"{'city': 'Singapore', 'street': '410A Serangoon Central', 'country': 'SG', 'zipcode': '551410', 'building': '', 'neighborhood': ''}",SRID=4326;POINT (103.873591 1.348203),Open,22,103.873591,1.348203,0.0,154
serangoon-serangoonnorthavenue1-blk149a-deck2b,Serangoon/Serangoon North Avenue 1/Blk 149A/Deck 2B,551149-01,SG-551149-001,Parking,"{'city': 'Singapore', 'street': '149A Serangoon North Avenue 1', 'country': 'SG', 'zipcode': '551149', 'building': '', 'neighborhood': ''}",SRID=4326;POINT (103.873289 1.367212),Open,22,103.873289,1.367212,1.0,157
serangoon-serangoonnorthavenue4-blk512a-deck1b,Serangoon/Serangoon North Avenue 4/Blk 512A/Deck 1B,551512-01,SG-551512-001,Parking,"{'city': 'Singapore', 'street': '512A Serangoon North Avenue 4', 'country': 'SG', 'zipcode': '551512', 'building': '', 'neighborhood': ''}",SRID=4326;POINT (103.8751 1.371005),Open,22,103.8751,1.371005,0.0,157
serangoon-serangoonnorthavenue-blk546a-deck1a,Serangoon/Serangoon North Avenue/Blk 546A/Deck 1A,551546-01,SG-551546-001,Parking,"{'city': 'Singapore', 'street': '546A Serangoon North Avenue 3', 'country': 'SG', 'zipcode': '551546', 'building': '', 'neighborhood': ''}",SRID=4326;POINT (103.870194 1.374037),Open,22,103.870194,1.374037,1.0,158
serangoon-upperserangoonview-blk476-deck3,Serangoon/Upper Serangoon View/Blk 476/Deck 3,530476-01,SG-530476-001,Parking,"{'city': 'Singapore', 'street': '476 Upper Serangoon View', 'country': 'SG', 'zipcode': '530476', 'building': '', 'neighborhood': ''}",SRID=4326;POINT (103.903721 1.37738),Open,35,103.903721,1.37738,1.0,159
tampines-4tampinescentral5-tampinesmall-deckb2,Tampines/4 Tampines Central 5/Tampines Mall/Deck B2,529510-01,SG-529510-001,Parking,"{'city': 'Singapore', 'street': '4 Tampines Central 5', 'country': 'SG', 'zipcode': '529510', 'building': '', 'neighborhood': ''}",SRID=4326;POINT (103.945251 1.352467),Open,49,103.945251,1.352467,0.0,165
tampines-simeiroad-blk155,Tampines/Simei Road/Blk 155,520155-01,SG-520155-001,Parking,"{'city': 'Singapore', 'street': '155 Simei Road', 'country': 'SG', 'zipcode': '520155', 'building': '', 'neighborhood': ''}",SRID=4326;POINT (103.958393 1.344756),Open,49,103.958393,1.344756,1.0,160
tampines-simeist1-blk108-deck373,Tampines/Simei St 1/Blk 108,520108-01,SG-520108-001,Parking,"{'city': 'Singapore', 'street': '108 Simei Street 1', 'country': 'SG', 'zipcode': '520108'}",SRID=4326;POINT (103.951077 1.343322),Open,49,103.951077,1.343322,1.0,161
simei-simeistreet1-blk132,Tampines/Simei Street 1/Blk 132,520132-01,SG-520132-001,Parking,"{'city': 'Singapore', 'street': '132 Simei Street 1', 'country': 'SG', 'zipcode': '520132', 'building': '', 'neighborhood': ''}",SRID=4326;POINT (103.9562201 1.3472048),Open,49,103.9562201,1.3472048,0.0,160
tampines-simeistreet4-blk233,Tampines/Simei Street 4/Blk 233,520221-01,SG-520221-001,Parking,"{'city': 'Singapore', 'street': '221/235 Simei Street 4', 'country': 'SG', 'zipcode': '520221', 'building': '', 'neighborhood': ''}",SRID=4326;POINT (103.956347 1.344043),Open,49,103.956347,1.344043,0.0,160
tampines-tampinesavenue1-blk890-deck1,Tampines/Tampines Avenue 1/Blk 890/Deck 1,520890-01,SG-520890-001,Parking,"{'city': 'Singapore', 'street': '890 Tampines Avenue 1', 'country': 'SG', 'zipcode': '520890', 'building': '', 'neighborhood': ''}",SRID=4326;POINT (103.934193 1.34709),Open,49,103.934193,1.34709,0.0,170
tampines-tampinesavenue4-blk902,Tampines/Tampines Avenue 4/Blk 902,520902-01,SG-520902-001,Parking,"{'city': 'Singapore', 'street': '902 Tampines Avenue 4', 'country': 'SG', 'zipcode': '520902', 'building': '', 'neighborhood': ''}",SRID=4326;POINT (103.939541 1.351249),Open,49,103.939541,1.351249,1.0,162
tampines-tampinesavenue8-blk879c-deck1a,Tampines/Tampines Avenue 8/Blk 879C/Deck 1A,523879-01,SG-523879-001,Parking,"{'city': 'Singapore', 'street': '879C Tampines Avenue 8', 'country': 'SG', 'zipcode': '523879', 'building': '', 'neighborhood': ''}",SRID=4326;POINT (103.928663 1.351144),Open,49,103.928663,1.351144,1.0,163
tampines-tampinesavenue9-blk601-level1,Tampines/Tampines Avenue 9/Blk 601/Level 1,520601-01,SG-520601-001,Parking,"{'city': 'Singapore', 'street': '601 Tampines Avenue 9', 'country': 'SG', 'zipcode': '520601', 'building': '', 'neighborhood': ''}",SRID=4326;POINT (103.9365 1.361081),Open,49,103.9365,1.361081,0.0,169
tampines-tampinesst32-blk307a-deck1a,Tampines/Tampines St 32/Blk 307A/Deck 1A,521307-02,SG-521307-002,Parking,"{'city': 'Singapore', 'street': '307A Tampines Street 32', 'country': 'SG', 'zipcode': '521307', 'building': '', 'neighborhood': ''}",SRID=4326;POINT (103.956151 1.353513),Open,49,103.956151,1.353513,0.0,166
tampines-tampinesst41-blk420,Tampines/Tampines St 41/Blk 420,520418-01,SG-520418-001,Parking,"{'city': 'Singapore', 'street': '420 Tampines Street 41', 'country': 'SG', 'zipcode': '520418', 'building': '', 'neighborhood': ''}",SRID=4326;POINT (103.947125 1.357537),Open,49,103.947125,1.357537,1.0,164
tampines-tampinesstreet11-blk107,Tampines/Tampines Street 11/Blk 107,521107-01,SG-521107-001,Parking,"{'city': 'Singapore', 'street': '107 Tampines Street 11', 'country': 'SG', 'zipcode': '521107', 'building': '', 'neighborhood': ''}",SRID=4326;POINT (103.947926 1.348142),Open,49,103.947926,1.348142,0.0,165
tampines-tampinesstreet21-blk202a-deck1a,Tampines/Tampines Street 21/Blk 202A/Deck 1A,521202-01,SG-521202-001,Parking,"{'city': 'Singapore', 'street': '202A Tampines Street 21', 'country': 'SG', 'zipcode': '521202', 'building': '', 'neighborhood': ''}",SRID=4326;POINT (103.952211 1.353352),Open,49,103.952211,1.353352,0.0,166
tampines-tampinesstreet21-blk269,Tampines/Tampines Street 21/Blk 269,520269-01,SG-520269-001,Parking,"{'city': 'Singapore', 'street': '269 Tampines Street 21', 'country': 'SG', 'zipcode': '520269', 'building': '', 'neighborhood': ''}",SRID=4326;POINT (103.947646 1.350578),Open,49,103.947646,1.350578,1.0,165
tampines-tampinesstreet22-blk274,Tampines/Tampines Street 22/Blk 274,520275-01,SG-520275-001,Parking,"{'city': 'Singapore', 'street': 'Blk 272/275 Tampines Street 22', 'country': 'SG', 'zipcode': '520275', 'building': '', 'neighborhood': ''}",SRID=4326;POINT (103.950524 1.348438),Open,49,103.950524,1.348438,0.0,165
tampines-tampinesstreet22-blk299a,Tampines/Tampines Street 22/Blk 299A,521299-01,SG-521299-001,Parking,"{'city': 'Singapore', 'street': '299A Tampines Street 22', 'country': 'SG', 'zipcode': '521299', 'building': '', 'neighborhood': ''}",SRID=4326;POINT (103.95424 1.350399),Open,49,103.95424,1.350399,1.0,166
tampines-tampinesstreet34-blk364a-deck1b,Tampines/Tampines Street 34/Blk 364A/Deck 1B,521364-01,SG-521364-001,Parking,"{'city': 'Singapore', 'street': '364A Tampines Street 34', 'country': 'SG', 'zipcode': '521364', 'building': '', 'neighborhood': ''}",SRID=4326;POINT (103.959286 1.357323),Open,49,103.959286,1.357323,1.0,167
tampines-tampinesstreet42-blk494a-deck1b,Tampines/Tampines Street 43/Blk 494A/Deck 1B,521494-01,SG-521494-001,Parking,"{'city': 'Singapore', 'street': '494A Tampines Street 43', 'country': 'SG', 'zipcode': '521494', 'building': '', 'neighborhood': ''}",SRID=4326;POINT (103.952238 1.363097),Open,49,103.952238,1.363097,1.0,168
tampines-tampinesstreet44-blk475-deck2a,Tampines/Tampines Street 44/Blk 475/Deck 2A,520475-01,SG-520475-001,Parking,"{'city': 'Singapore', 'street': '475 Tampines Street 44', 'country': 'SG', 'zipcode': '520475', 'building': '', 'neighborhood': ''}",SRID=4326;POINT (103.953129 1.360381),Open,49,103.953129,1.360381,0.0,168
tampines-tampinesstreet71-blk701a-deck1a,Tampines/Tampines Street 71/Blk 701A/Deck 1A,521701-01,SG-521701-001,Parking,"{'city': 'Singapore', 'street': '701A Tampines street 71', 'country': 'SG', 'zipcode': '521701', 'building': '', 'neighborhood': ''}",SRID=4326;POINT (103.936594 1.356541),Open,49,103.936594,1.356541,0.0,169
tampines-tampinesstreet71-blk730a-deck1b,Tampines/Tampines Street 71/Blk 730A/Deck 1B,521730-01,SG-521730-001,Parking,"{'city': 'Singapore', 'street': '730A Tampines Street 71', 'country': 'SG', 'zipcode': '521730', 'building': '', 'neighborhood': ''}",SRID=4326;POINT (103.933658 1.357569),Open,49,103.933658,1.357569,0.0,169
tampines-tampinesstreet72-blk742a-deck1a,Tampines/Tampines Street 72/Blk 742A/Deck 1A,521742-01,SG-521742-001,Parking,"{'city': 'Singapore', 'street': '742A Tampines Street 72', 'country': 'SG', 'zipcode': '521742', 'building': '', 'neighborhood': ''}",SRID=4326;POINT (103.934176 1.359905),Open,49,103.934176,1.359905,1.0,169
tampines-tampinesstreet81-blk823a-deck2a,Tampines/Tampines Street 81/Blk 823A/Deck 2A,521823-01,SG-521823-001,Parking,"{'city': 'Singapore', 'street': '823A Tampines Street 81', 'country': 'SG', 'zipcode': '521823', 'building': '', 'neighborhood': ''}",SRID=4326;POINT (103.933418 1.348868),Open,49,103.933418,1.348868,1.0,170
tampines-tampinesstreet83-blk851,Tampines/Tampines Street 83/Blk 851,520851-01,SG-520851-001,Parking,"{'city': 'Singapore', 'street': '851 Tampines Street 83', 'country': 'SG', 'zipcode': '520851', 'building': '', 'neighborhood': ''}",SRID=4326;POINT (103.935061 1.353051),Open,49,103.935061,1.353051,0.0,170
tampines-tampinesstreet91-blk921a-deck1a,Tampines/Tampines Street 91/Blk 921A/Deck 1A,521921-01,SG-521921-001,Parking,"{'city': 'Singapore', 'street': '921A Tampines Street 91', 'country': 'SG', 'zipcode': '521921', 'building': '', 'neighborhood': ''}",SRID=4326;POINT (103.941371 1.347284),Open,49,103.941371,1.347284,0.0,162
tampines-tampineswalk-ourtampineshub-deckb1,Tampines/Tampines Walk/Our Tampines Hub/Deck B1,528523-02,SG-528523-002,Parking,"{'city': 'Singapore', 'street': '1 Tampines Walk', 'country': 'SG', 'zipcode': '528523', 'building': '', 'neighborhood': ''}",SRID=4326;POINT (103.940773 1.353227),Open,49,103.940773,1.353227,0.0,162
toapayoh-joosengroad-blk2a-deck1a,Toa Payoh/Joo Seng Road/Blk 2A/Deck 1A,361002-01,SG-361002-001,Parking,"{'city': 'Singapore', 'street': '2A Joo seng Road', 'country': 'SG', 'zipcode': '361002', 'building': '', 'neighborhood': ''}",SRID=4326;POINT (103.879269 1.334573),Open,25,103.879269,1.334573,1.0,171
toapayoh-kimkeatavenue3-blk260-deck2a,Toa Payoh/Kim Keat Avenue 3/Blk 260/Deck 2A,310260-01,SG-310260-001,Parking,"{'city': 'Singapore', 'street': '260 Kim Keat Avenue', 'country': 'SG', 'zipcode': '310260', 'building': '', 'neighborhood': ''}",SRID=4326;POINT (103.857486 1.332086),Open,25,103.857486,1.332086,1.0,172
toapayoh-lorong8toapayoh-blk213,Toa Payoh/Lorong 8 Toa Payoh/Blk 213,310213-01,SG-310213-001,Parking,"{'city': 'Singapore', 'street': '213 Lorong 8 Toa Payoh', 'country': 'SG', 'zipcode': '310213', 'building': '', 'neighborhood': ''}",SRID=4326;POINT (103.8551 1.341068),Open,25,103.8551,1.341068,0.0,18
toapayoh-potongpasiravenue1-blk117,Toa Payoh/Potong Pasir Avenue 1/Blk 117,350117-01,SG-350117-001,Parking,"{'city': 'Singapore', 'street': '117 Potong Pasir Avenue 1', 'country': 'SG', 'zipcode': '350117', 'building': '', 'neighborhood': ''}",SRID=4326;POINT (103.863104 1.336558),Open,25,103.863104,1.336558,1.0,173
toapayoh-toapayohlor2-blk120a-deck1b,Toa Payoh/Toa Payoh Lor 2/Blk 120A/Deck 1B,311120-01,SG-311120-001,Parking,"{'city': 'Singapore', 'street': '120A Lorong 2 Toa Payoh', 'country': 'SG', 'zipcode': '311120'}",SRID=4326;POINT (103.84585 1.33983),Open,25,103.84585,1.33983,1.0,174
toapayoh-toapayohlor4-blk60a-deck1b,Toa Payoh/Toa Payoh Lor 4/Blk 60A/Deck 1B,311060-01,SG-311060-001,Parking,"{'city': 'Singapore', 'street': '60A Lorong 4 Toa Payoh', 'country': 'SG', 'zipcode': '311060', 'building': '', 'neighborhood': ''}",SRID=4326;POINT (103.851158 1.336504),Open,25,103.851158,1.336504,1.0,175
toapayoh-toapayohlor8-blk11a-deck2a,Toa Payoh/Toa Payoh Lor 8/Blk 11A/Deck 2A,311011-01,SG-311011-001,Parking,"{'city': 'Singapore', 'street': '11A Lorong 8 Toa Payoh', 'country': 'SG', 'zipcode': '311011', 'building': '', 'neighborhood': ''}",SRID=4326;POINT (103.859568 1.336628),Open,25,103.859568,1.336628,0.0,173
toapayoh-toapayohlorong2-blk141a-deck2a,Toa Payoh/Toa Payoh Lorong 2/Blk 141A/Deck 2A,310141-01,SG-310141-001,Parking,"{'city': 'Singapore', 'street': '141A Lorong 2 Toa Payoh', 'country': 'SG', 'zipcode': '310141', 'building': '', 'neighborhood': ''}",SRID=4326;POINT (103.84559 1.335211),Open,25,103.84559,1.335211,1.0,176
toapayoh-toapayohnorth-blk206,Toa Payoh/Toa Payoh North/Blk 206,310206-01,SG-310206-001,Parking,"{'city': 'Singapore', 'street': '206 Toa Payoh North', 'country': 'SG', 'zipcode': '310206', 'building': '', 'neighborhood': ''}",SRID=4326;POINT (103.84704 1.342474),Open,25,103.84704,1.342474,0.0,174
whampoa-3jalanampas-besideshawplaza,Whampoa/3 Jalan Ampas/Beside Shaw Plaza,329802-01,SG-329802-001,Parking,"{'city': 'Singapore', 'street': '3 Jalan Ampas', 'country': 'SG', 'zipcode': '329802', 'building': '', 'neighborhood': ''}",SRID=4326;POINT (103.850772 1.325382),Open,14,103.850772,1.325382,0.0,110
woodlands-marsilingdrive-blk34a-deck1a,Woodlands/Marsiling Drive/Blk 34A/Deck 1A,731034-01,SG-731034-001,Parking,"{'city': 'Singapore', 'street': '34A Marsiling Drive', 'country': 'SG', 'zipcode': '731034', 'building': '', 'neighborhood': ''}",SRID=4326;POINT (103.772238 1.444603),Open,32,103.772238,1.444603,1.0,177
woodlands-marsilingroad-blk181-deck2,Woodlands/Marsiling Road/Blk 181/Deck 2,730181-01,SG-730181-001,Parking,"{'city': 'Singapore', 'street': '181 Marsiling Road, Marsiling Heights', 'country': 'SG', 'zipcode': '730181', 'building': '', 'neighborhood': ''}",SRID=4326;POINT (103.779857 1.439595),Open,32,103.779857,1.439595,1.0,178
woodlands-woodlandavenue6-blk693-deck2b,Woodlands/Woodland Avenue 6/Blk 693/Deck 2B,730693-01,SG-730693-001,Parking,"{'city': 'Singapore', 'street': '693 Woodlands Avenue 6', 'country': 'SG', 'zipcode': '730693', 'building': '', 'neighborhood': ''}",SRID=4326;POINT (103.803754 1.438091),Open,32,103.803754,1.438091,0.0,181
woodlands-woodlanddrive14-blk505a-deck1,Woodlands/Woodland Drive 14/Blk 505A/Deck 1,731505-01,SG-731505-001,Parking,"{'city': 'Singapore', 'street': '505A Woodlands Drive 14', 'country': 'SG', 'zipcode': '731505', 'building': '', 'neighborhood': ''}",SRID=4326;POINT (103.791669 1.432081),Open,32,103.791669,1.432081,1.0,179
woodlands-woodlanddrive50-blk892c-deck2a,Woodlands/Woodland Drive 50/Blk 892C/Deck 2A,732892-01,SG-732892-001,Parking,"{'city': 'Singapore', 'street': '892C Woodlands Drive 50', 'country': 'SG', 'zipcode': '732892', 'building': '', 'neighborhood': ''}",SRID=4326;POINT (103.78945 1.436824),Open,32,103.78945,1.436824,1.0,180
woodlands-woodlanddrive52-blk626a-deck2a,Woodlands/Woodland Drive 52/Blk 626A/Deck 2A,731626-01,SG-731626-001,Parking,"{'city': 'Singapore', 'street': '626A Woodlands Drive 52', 'country': 'SG', 'zipcode': '731626', 'building': '', 'neighborhood': ''}",SRID=4326;POINT (103.800276 1.434112),Open,32,103.800276,1.434112,0.0,186
woodlands-woodlandringroad-blk649a-deck1b,Woodlands/Woodland Ring Road/Blk 649A/Deck 1B,731649-01,SG-731649-001,Parking,"{'city': 'Singapore', 'street': '649A Woodlands ring Road', 'country': 'SG', 'zipcode': '731649', 'building': '', 'neighborhood': ''}",SRID=4326;POINT (103.800336 1.438732),Open,32,103.800336,1.438732,1.0,181
woodlands-woodlandrise-blk785-deck2b,Woodlands/Woodland Rise/Blk 785/Deck 2B,730785-01,SG-730785-001,Parking,"{'city': 'Singapore', 'street': '785 Woodlands Rise', 'country': 'SG', 'zipcode': '730785', 'building': '', 'neighborhood': ''}",SRID=4326;POINT (103.805007 1.447049),Open,32,103.805007,1.447049,1.0,182
woodlands-woodlandsavenue1-blk371a-deck1b,Woodlands/Woodlands Avenue 1/Blk 371A/Deck 1B,731371-01,SG-731371-001,Parking,"{'city': 'Singapore', 'street': '371A Woodlands Avenue 1', 'country': 'SG', 'zipcode': '731371', 'building': '', 'neighborhood': ''}",SRID=4326;POINT (103.786504 1.432869),Open,32,103.786504,1.432869,1.0,183
woodlands-woodlandsavenue5-blk358a-deck2a,Woodlands/Woodlands Avenue 5/Blk 358A/Deck 2A,731358-01,SG-731358-001,Parking,"{'city': 'Singapore', 'street': '358A Woodlands Avenue 5', 'country': 'SG', 'zipcode': '731358', 'building': '', 'neighborhood': ''}",SRID=4326;POINT (103.784014 1.433248),Open,32,103.784014,1.433248,0.0,183
woodlands-woodlandscircle-blk747a-deck1a,Woodlands/Woodlands Circle/Blk 747A/Deck 1A,731747-01,SG-731747-001,Parking,"{'city': 'Singapore', 'street': '747A Woodlands Circle', 'country': 'SG', 'zipcode': '731747', 'building': '', 'neighborhood': ''}",SRID=4326;POINT (103.795599 1.443332),Open,32,103.795599,1.443332,1.0,184
woodlands-woodlandscircle-blk766a-deck1a,Woodlands/Woodlands Circle/Blk 766A/Deck 1A,731766-01,SG-731766-001,Parking,"{'city': 'Singapore', 'street': '766A Woodlands Circle', 'country': 'SG', 'zipcode': '731766', 'building': '', 'neighborhood': ''}",SRID=4326;POINT (103.797391 1.44579),Open,32,103.797391,1.44579,0.0,184
woodlands-woodlandscrescent-blk780-deck2a,Woodlands/Woodlands Crescent/Blk 780/Deck 2A,730780-01,SG-730780-001,Parking,"{'city': 'Singapore', 'street': '780 Woodlands Crescent, Woodlands Dew', 'country': 'SG', 'zipcode': '730780'}",SRID=4326;POINT (103.800855 1.448457),Open,32,103.800855,1.448457,0.0,182
woodlands-woodlandscrescent-blk788a-deck1a,Woodlands/Woodlands Crescent/Blk 788A/Deck 1A,731788-01,SG-731788-001,Parking,"{'city': 'Singapore', 'street': '788A Woodlands Crescent', 'country': 'SG', 'zipcode': '731788', 'building': '', 'neighborhood': ''}",SRID=4326;POINT (103.801834 1.444165),Open,32,103.801834,1.444165,0.0,182
woodlands-woodlandsdrive16-blk579a-deck1b,Woodlands/Woodlands Drive 16/Blk 579A/Deck 1B,731579-01,SG-731579-001,Parking,"{'city': 'Singapore', 'street': '579A Woodlands Drive 16', 'country': 'SG', 'zipcode': '731579', 'building': '', 'neighborhood': ''}",SRID=4326;POINT (103.795431 1.431012),Open,32,103.795431,1.431012,0.0,186
woodlands-woodlandsdrive50-blk889-deck1a,Woodlands/Woodlands drive 50/Blk 889/Deck 1A,730889-01,SG-730889-001,Parking,"{'city': 'Singapore', 'street': '889 Woodlands Drive 50', 'country': 'SG', 'zipcode': '730889', 'building': '', 'neighborhood': ''}",SRID=4326;POINT (103.793715 1.437933),Open,32,103.793715,1.437933,0.0,186
woodlands-woodlandsdrive70-blk709a-deck1b,Woodlands/Woodlands Drive 70/Blk 709A/Deck 1B,731709-01,SG-731709-001,Parking,"{'city': 'Singapore', 'street': '709A Woodlands Drive 70', 'country': 'SG', 'zipcode': '731709', 'building': '', 'neighborhood': ''}",SRID=4326;POINT (103.798087 1.441065),Open,32,103.798087,1.441065,0.0,181
woodlands-woodlandsdrive73-blk686-deck1,Woodlands/Woodlands Drive 73/Blk 686/Deck 1,730686-01,SG-730686-001,Parking,"{'city': 'Singapore', 'street': '686 Woodlands Drive 73', 'country': 'SG', 'zipcode': '730686', 'building': '', 'neighborhood': ''}",SRID=4326;POINT (103.806107 1.442897),Open,32,103.806107,1.442897,0.0,182
woodlands-woodlandsstreet13-blk182-deck3b,Woodlands/Woodlands Street 13/Blk 182/Deck 3B,730182-01,SG-730182-001,Parking,"{'city': 'Singapore', 'street': '182 Woodlands Street 13', 'country': 'SG', 'zipcode': '730182', 'building': '', 'neighborhood': ''}",SRID=4326;POINT (103.776005 1.435225),Open,32,103.776005,1.435225,1.0,185
woodland-woodlandavenue4-blk614a-deck2a,Woodland/Woodland Avenue 4/Blk 614A/Deck 2A,731614-01,SG-731614-001,Parking,"{'city': 'Singapore', 'street': '614A Woodlands Avenue 4', 'country': 'SG', 'zipcode': '731614', 'building': '', 'neighborhood': ''}",SRID=4326;POINT (103.795957 1.434854),Open,32,103.795957,1.434854,1.0,186
yishun-yishunave9-blk317-deck2b,Yishun/Yishun Ave 9/Blk 317/Deck 2B,760317-01,SG-760317-001,Parking,"{'city': 'Singapore', 'street': '317 Yishun Avenue 9, Yishun Greenwalk', 'country': 'SG', 'zipcode': '760317', 'building': '', 'neighborhood': ''}",SRID=4326;POINT (103.842253 1.433711),Open,27,103.842253,1.433711,0.0,189
yishun-yishunavenue11-blk347-storey1a,Yishun/Yishun Avenue 11/Blk 347/Storey 1A,760347-01,SG-760347-001,Parking,"{'city': 'Singapore', 'street': '347 Yishun Avenue 11', 'country': 'SG', 'zipcode': '760347', 'building': '', 'neighborhood': ''}",SRID=4326;POINT (103.842979 1.427679),Open,27,103.842979,1.427679,0.0,189
yishun-yishunavenue11-blk426-deck1a,Yishun/Yishun Avenue 11/Blk 426/Deck 1A,760426-01,SG-760426-001,Parking,"{'city': 'Singapore', 'street': '426 Yishun Avenue 11', 'country': 'SG', 'zipcode': '760426', 'building': '', 'neighborhood': ''}",SRID=4326;POINT (103.846085 1.422916),Open,27,103.846085,1.422916,0.0,192
yishun-yishunavenue11-blk430-deck2b,Yishun/Yishun Avenue 11/Blk 430/Deck 2B,760430-01,SG-760430-001,Parking,"{'city': 'Singapore', 'street': '430 Yishun Avenue 11', 'country': 'SG', 'zipcode': '760430', 'building': '', 'neighborhood': ''}",SRID=4326;POINT (103.848119 1.421177),Decommissioned,27,103.848119,1.421177,0.0,192
yishun-yishunavenue3-blk769,Yishun/Yishun Avenue 3/Blk 769,760773-01,SG-760773-001,Parking,"{'city': 'Singapore', 'street': '773 Yishun Avenue 3', 'country': 'SG', 'zipcode': '760773', 'building': '', 'neighborhood': ''}",SRID=4326;POINT (103.833346 1.424284),Open,27,103.833346,1.424284,1.0,187
yishun-yishunringroad-blk165,Yishun/Yishun Ring Road/Blk 165,760165-01,SG-760165-001,Parking,"{'city': 'Singapore', 'street': '165 Yishun Ring Road', 'country': 'SG', 'zipcode': '760165', 'building': '', 'neighborhood': ''}",SRID=4326;POINT (103.8320274 1.4355487),Open,27,103.8320274,1.4355487,1.0,188
yishun-yishunringroad-blk307-deck2a,Yishun/Yishun Ring Road/Blk 307/Deck 2A,760307-01,SG-760307-001,Parking,"{'city': 'Singapore', 'street': '307 Yishun Ring Road', 'country': 'SG', 'zipcode': '760307', 'building': '', 'neighborhood': ''}",SRID=4326;POINT (103.840951 1.430843),Open,27,103.840951,1.430843,1.0,189
yishun-yishunringroad-blk676-deck2a,Yishun/Yishun Ring Road/Blk 676/Deck 2A,760676-01,SG-760676-001,Parking,"{'city': 'Singapore', 'street': '676 Yishun Ring Road', 'country': 'SG', 'zipcode': '760676', 'building': '', 'neighborhood': ''}",SRID=4326;POINT (103.841868 1.421641),Open,27,103.841868,1.421641,0.0,192
yishun-yishunringroad-blk781,Yishun/Yishun Ring Road/Blk 781,760781-01,SG-760781-001,Parking,"{'city': 'Singapore', 'street': '781 Yishun Ring Road', 'country': 'SG', 'zipcode': '760781', 'building': '', 'neighborhood': ''}",SRID=4326;POINT (103.832121 1.422343),Open,27,103.832121,1.422343,0.0,187
yishun-yishunringroad-blk809,Yishun/Yishun Ring Road/Blk 809,760806-02,SG-760806-002,Parking,"{'city': 'Singapore', 'street': '800-812 Yishun Ring Road', 'country': 'SG', 'zipcode': '760806', 'building': '', 'neighborhood': ''}",SRID=4326;POINT (103.83048 1.416833),Open,27,103.83048,1.416833,1.0,190
yishun-yishunringroad-blk853,Yishun/Yishun Ring Road/Blk 853,760855-01,SG-760855-001,Parking,"{'city': 'Singapore', 'street': '850 to 855 Yishun Ring Road', 'country': 'SG', 'zipcode': '760855', 'building': '', 'neighborhood': ''}",SRID=4326;POINT (103.836526 1.416593),Open,27,103.836526,1.416593,0.0,193
yishun-yishunst22-blk265,Yishun/Yishun St 22/Blk265,760265-01,SG-760265-001,Parking,"{'city': 'Singapore', 'street': '265 Yishun Street 22', 'country': 'SG', 'zipcode': '760265'}",SRID=4326;POINT (103.8383619 1.4369706),Open,27,103.8383619,1.4369706,1.0,191
yishun-yishunstreet11-blk132,Yishun/Yishun Street 11/Blk 132,760132-01,SG-760132-001,Parking,"{'city': 'Singapore', 'street': '132 Yishun Street 11', 'country': 'SG', 'zipcode': '760132', 'building': '', 'neighborhood': ''}",SRID=4326;POINT (103.831866 1.432989),Open,27,103.831866,1.432989,0.0,188
yishun-yishunstreet21-blk220,Yishun/Yishun Street 21/Blk 220,760220-01,SG-760220-001,Parking,"{'city': 'Singapore', 'street': '220 Yishun Street 21', 'country': 'SG', 'zipcode': '760220', 'building': '', 'neighborhood': ''}",SRID=4326;POINT (103.835685 1.433137),Open,27,103.835685,1.433137,0.0,188
yishun-yishunstreet31-blk333-deck1a,Yishun/Yishun Street 31/Blk 333/Deck 1A,760333-01,SG-760333-001,Parking,"{'city': 'Singapore', 'street': '333 Yishun Street 31', 'country': 'SG', 'zipcode': '760333', 'building': '', 'neighborhood': ''}",SRID=4326;POINT (103.844951 1.43154),Open,27,103.844951,1.43154,0.0,189
yishun-yishunstreet41-blk456a-deck1b,Yishun/Yishun Street 41/Blk 456A/Deck 1B,761456-01,SG-761456-001,Parking,"{'city': 'Singapore', 'street': '456A Yishun Street 41', 'country': 'SG', 'zipcode': '761456', 'building': '', 'neighborhood': ''}",SRID=4326;POINT (103.8451 1.419846),Open,27,103.8451,1.419846,1.0,192
yishun-yishunstreet51-blk501-deck1a,Yishun/Yishun Street 51/Blk 501/Deck 1A,760501-01,SG-760501-001,Parking,"{'city': 'Singapore', 'street': '501 Yishun Street 51', 'country': 'SG', 'zipcode': '760501', 'building': '', 'neighborhood': ''}",SRID=4326;POINT (103.840604 1.416572),Open,27,103.840604,1.416572,1.0,193
yishun-yishunstreet51-blk504-deck2,Yishun/Yishun Street 51/Blk 504/Deck 2,760504-01,SG-760504-001,Parking,"{'city': 'Singapore', 'street': '504 Yishun street 51', 'country': 'SG', 'zipcode': '760504', 'building': '', 'neighborhood': ''}",SRID=4326;POINT (103.844755 1.418416),Open,27,103.844755,1.418416,0.0,192
yishun-yishunstreet51-blk512-deck1a,Yishun/Yishun Street 51/Blk 512/Deck 1A,760512-01,SG-760512-001,Parking,"{'city': 'Singapore', 'street': '512 Yishun Street 51', 'country': 'SG', 'zipcode': '760512', 'building': '', 'neighborhood': ''}",SRID=4326;POINT (103.841 1.41461),Open,27,103.841,1.41461,0.0,193
yishun-yishunstreet51-blk513-deck2,Yishun/Yishun Street 51/Blk 513/Deck 2,760513-01,SG-760513-001,Parking,"{'city': 'Singapore', 'street': '513 Yishun Street 51', 'country': 'SG', 'zipcode': '760513', 'building': '', 'neighborhood': ''}",SRID=4326;POINT (103.844221 1.415984),Open,27,103.844221,1.415984,0.0,193
